{"type":"FeatureCollection","features":[{"type":"Feature","properties":{"name":"울릉도","district":"울릉군","kind":"island"},"geometry":{"type":"MultiPolygon","coordinates":[[[[130.93791198730514,37.5326385498048],[130.93791198730514,37.53236007690441],[130.93902587890625,37.53236007690441],[130.93902587890625,37.53208160400385],[130.94013977050815,37.53208160400385],[130.94013977050815,37.53180694580084],[130.94041442871105,37.53180694580084],[130.94041442871105,37.52736282348661],[130.94013977050815,37.52736282348661],[130.94013977050815,37.52624893188488],[130.93986511230491,37.52624893188488],[130.93986511230491,37.525417327880916],[130.93959045410156,37.525417327880916],[130.93959045410156,37.52430725097656],[130.93930053710983,37.52430725097656],[130.93930053710983,37.52402877807617],[130.93902587890625,37.52402877807617],[130.93902587890625,37.52430725097656],[130.9384765625,37.52430725097656],[130.9384765625,37.524581909179744],[130.93820190429688,37.524581909179744],[130.93820190429688,37.524860382080135],[130.93763732910156,37.524860382080135],[130.93763732910156,37.525138854980526],[130.93736267089855,37.525138854980526],[130.93736267089855,37.525417327880916],[130.93708801269565,37.525417327880916],[130.93708801269565,37.52569580078131],[130.93679809570324,37.52569580078131],[130.93679809570324,37.52652740478527],[130.93652343750023,37.52652740478527],[130.93652343750023,37.52680587768566],[130.93624877929733,37.52680587768566],[130.93624877929733,37.52708435058605],[130.93597412109375,37.52708435058605],[130.93597412109375,37.52736282348661],[130.93569946289097,37.52736282348661],[130.93569946289097,37.52763748168945],[130.93540954589844,37.52763748168945],[130.93540954589844,37.527915954589844],[130.93458557128906,37.527915954589844],[130.93458557128906,37.528194427490405],[130.93486022949264,37.528194427490405],[130.93486022949264,37.5290260314942],[130.9351348876953,37.5290260314942],[130.9351348876953,37.530418395996094],[130.93540954589844,37.530418395996094],[130.93540954589844,37.53125],[130.93569946289097,37.53125],[130.93569946289097,37.53152847290045],[130.93597412109375,37.53152847290045],[130.93597412109375,37.53180694580084],[130.93624877929733,37.53180694580084],[130.93624877929733,37.53208160400385],[130.93679809570324,37.53208160400385],[130.93679809570324,37.53236007690441],[130.93736267089855,37.53236007690441],[130.93736267089855,37.5326385498048],[130.93791198730514,37.5326385498048]]],[[[130.9229125976566,37.543193817138956],[130.9229125976566,37.542915344238395],[130.92263793945312,37.542915344238395],[130.92263793945312,37.54236221313499],[130.92236328125,37.54236221313499],[130.92236328125,37.54180526733404],[130.92208862304733,37.54180526733404],[130.92208862304733,37.54124832153326],[130.92124938964878,37.54124832153326],[130.92124938964878,37.54152679443365],[130.92041015625023,37.54152679443365],[130.92041015625023,37.54180526733404],[130.91958618164062,37.54180526733404],[130.91958618164062,37.5420837402346],[130.9190216064453,37.5420837402346],[130.9190216064453,37.54236221313499],[130.91847229003918,37.54236221313499],[130.91847229003918,37.542640686035156],[130.91819763183628,37.542640686035156],[130.91819763183628,37.543193817138956],[130.91792297363293,37.543193817138956],[130.91792297363293,37.54375076293951],[130.9198608398441,37.54375076293951],[130.9198608398441,37.5440292358399],[130.92013549804688,37.5440292358399],[130.92013549804688,37.54430389404314],[130.92070007324241,37.54430389404314],[130.92070007324241,37.5445823669433],[130.92124938964878,37.5445823669433],[130.92124938964878,37.54486083984369],[130.9217987060547,37.54486083984369],[130.9217987060547,37.545139312744254],[130.92318725585938,37.545139312744254],[130.92318725585938,37.543193817138956],[130.9229125976566,37.543193817138956]]],[[[130.8929138183595,37.54791641235357],[130.8929138183595,37.54763793945318],[130.8931884765625,37.54763793945318],[130.8931884765625,37.54735946655279],[130.89347839355514,37.54735946655279],[130.89347839355514,37.54680633544922],[130.8937530517578,37.54680633544922],[130.8937530517578,37.54652786254883],[130.89347839355514,37.54652786254883],[130.89347839355514,37.54624938964844],[130.89208984375023,37.54624938964844],[130.89208984375023,37.54735946655279],[130.89236450195324,37.54735946655279],[130.89236450195324,37.54763793945318],[130.8926391601566,37.54763793945318],[130.8926391601566,37.54791641235357],[130.8929138183595,37.54791641235357]]],[[[130.90875244140636,37.549026489257926],[130.90875244140636,37.54763793945318],[130.90902709960938,37.54763793945318],[130.90902709960938,37.54597091674805],[130.90930175781295,37.54597091674805],[130.90930175781295,37.5445823669433],[130.90957641601562,37.5445823669433],[130.90957641601562,37.5440292358399],[130.9098663330078,37.5440292358399],[130.9098663330078,37.542915344238395],[130.91014099121128,37.542915344238395],[130.91014099121128,37.54236221313499],[130.91041564941406,37.54236221313499],[130.91041564941406,37.5420837402346],[130.91069030761764,37.5420837402346],[130.91069030761764,37.54180526733404],[130.91096496582054,37.54180526733404],[130.91096496582054,37.54152679443365],[130.91180419921886,37.54152679443365],[130.91180419921886,37.54180526733404],[130.91207885742188,37.54180526733404],[130.91207885742188,37.5420837402346],[130.9126434326172,37.5420837402346],[130.9126434326172,37.54180526733404],[130.91403198242188,37.54180526733404],[130.91403198242188,37.5420837402346],[130.91514587402378,37.5420837402346],[130.91514587402378,37.54180526733404],[130.91542053222668,37.54180526733404],[130.91542053222668,37.54152679443365],[130.91653442382812,37.54152679443365],[130.91653442382812,37.54180526733404],[130.91708374023438,37.54180526733404],[130.91708374023438,37.5420837402346],[130.91792297363293,37.5420837402346],[130.91792297363293,37.54180526733404],[130.9187469482422,37.54180526733404],[130.9187469482422,37.54152679443365],[130.9190216064453,37.54152679443365],[130.9190216064453,37.54124832153326],[130.9193115234375,37.54124832153326],[130.9193115234375,37.54069519042969],[130.91958618164062,37.54069519042969],[130.91958618164062,37.540138244628906],[130.9193115234375,37.540138244628906],[130.9193115234375,37.539859771728516],[130.9190216064453,37.539859771728516],[130.9190216064453,37.539585113525504],[130.91792297363293,37.539585113525504],[130.91792297363293,37.539859771728516],[130.91624450683628,37.539859771728516],[130.91624450683628,37.539585113525504],[130.9159698486328,37.539585113525504],[130.9159698486328,37.539306640625114],[130.9156951904297,37.539306640625114],[130.9156951904297,37.53902816772472],[130.91514587402378,37.53902816772472],[130.91514587402378,37.53874969482433],[130.91458129882847,37.53874969482433],[130.91458129882847,37.53847122192377],[130.91403198242188,37.53847122192377],[130.91403198242188,37.53819274902338],[130.91319274902378,37.53819274902338],[130.91319274902378,37.53791809082037],[130.91235351562545,37.53791809082037],[130.91235351562545,37.53763961791998],[130.91207885742188,37.53763961791998],[130.91207885742188,37.53736114501959],[130.91180419921886,37.53736114501959],[130.91180419921886,37.536529541015625],[130.91207885742188,37.536529541015625],[130.91207885742188,37.53541564941412],[130.91152954101597,37.53541564941412],[130.91152954101597,37.53513717651373],[130.91125488281273,37.53513717651373],[130.91125488281273,37.53486251831072],[130.91096496582054,37.53486251831072],[130.91096496582054,37.534305572509766],[130.91069030761764,37.534305572509766],[130.91069030761764,37.53347396850597],[130.91096496582054,37.53347396850597],[130.91096496582054,37.53291702270519],[130.91069030761764,37.53291702270519],[130.91069030761764,37.5326385498048],[130.91041564941406,37.5326385498048],[130.91041564941406,37.53208160400385],[130.90957641601562,37.53208160400385],[130.90957641601562,37.53180694580084],[130.90930175781295,37.53180694580084],[130.90930175781295,37.53125],[130.9098663330078,37.53125],[130.9098663330078,37.530971527099666],[130.90957641601562,37.530971527099666],[130.90957641601562,37.5301399230957],[130.9098663330078,37.5301399230957],[130.9098663330078,37.52986145019531],[130.90957641601562,37.52986145019531],[130.90957641601562,37.5290260314942],[130.90930175781295,37.5290260314942],[130.90930175781295,37.528472900390796],[130.90818786621105,37.528472900390796],[130.90818786621105,37.52763748168945],[130.90847778320347,37.52763748168945],[130.90847778320347,37.52736282348661],[130.90875244140636,37.52736282348661],[130.90875244140636,37.52680587768566],[130.90902709960938,37.52680587768566],[130.90902709960938,37.52624893188488],[130.90875244140636,37.52624893188488],[130.90875244140636,37.52597045898449],[130.90902709960938,37.52597045898449],[130.90902709960938,37.52569580078131],[130.90930175781295,37.52569580078131],[130.90930175781295,37.525417327880916],[130.90957641601562,37.525417327880916],[130.90957641601562,37.525138854980526],[130.9098663330078,37.525138854980526],[130.9098663330078,37.524860382080135],[130.91014099121128,37.524860382080135],[130.91014099121128,37.52402877807617],[130.91041564941406,37.52402877807617],[130.91041564941406,37.52319335937523],[130.91069030761764,37.52319335937523],[130.91069030761764,37.52236175537104],[130.91096496582054,37.52236175537104],[130.91096496582054,37.52180480957048],[130.91125488281273,37.52180480957048],[130.91125488281273,37.52152633666992],[130.91152954101597,37.52152633666992],[130.91152954101597,37.52125167846708],[130.91346740722656,37.52125167846708],[130.91346740722656,37.52097320556669],[130.9137573242191,37.52097320556669],[130.9137573242191,37.519306182861385],[130.91403198242188,37.519306182861385],[130.91403198242188,37.519027709960994],[130.9156951904297,37.519027709960994],[130.9156951904297,37.518749237060604],[130.9159698486328,37.518749237060604],[130.9159698486328,37.51847076416021],[130.91624450683628,37.51847076416021],[130.91624450683628,37.51819610595703],[130.91653442382812,37.51819610595703],[130.91653442382812,37.51791763305664],[130.9168090820316,37.51791763305664],[130.9168090820316,37.51763916015625],[130.91708374023438,37.51763916015625],[130.91708374023438,37.515972137451115],[130.91735839843773,37.515972137451115],[130.91735839843773,37.51514053344732],[130.91763305664097,37.51514053344732],[130.91763305664097,37.509860992431584],[130.91708374023438,37.509860992431584],[130.91708374023438,37.50958251953119],[130.9168090820316,37.50958251953119],[130.9168090820316,37.50902938842779],[130.91653442382812,37.50902938842779],[130.91653442382812,37.5087509155274],[130.91624450683628,37.5087509155274],[130.91624450683628,37.50847244262724],[130.9159698486328,37.50847244262724],[130.9159698486328,37.50819396972685],[130.9156951904297,37.50819396972685],[130.9156951904297,37.507915496826286],[130.91485595703136,37.507915496826286],[130.91485595703136,37.507637023925895],[130.91430664062523,37.507637023925895],[130.91430664062523,37.507362365722884],[130.91403198242188,37.507362365722884],[130.91403198242188,37.50597381591814],[130.91430664062523,37.50597381591814],[130.91430664062523,37.50541687011719],[130.91458129882847,37.50541687011719],[130.91458129882847,37.504585266113395],[130.91485595703136,37.504581451416016],[130.91485595703136,37.504028320312614],[130.91514587402378,37.504028320312614],[130.91514587402378,37.50374984741222],[130.91542053222668,37.50374984741222],[130.91542053222668,37.50347137451166],[130.9156951904297,37.50347137451166],[130.9156951904297,37.49958419799822],[130.91514587402378,37.49958419799822],[130.91514587402378,37.499305725097656],[130.91485595703136,37.499305725097656],[130.91485595703136,37.49763870239269],[130.91430664062523,37.49763870239269],[130.91430664062523,37.4973602294923],[130.91403198242188,37.4973602294923],[130.91403198242188,37.49625015258795],[130.9137573242191,37.49625015258795],[130.9137573242191,37.495693206787394],[130.91346740722656,37.495693206787394],[130.91346740722656,37.49402618408209],[130.9137573242191,37.49402618408209],[130.9137573242191,37.492916107177734],[130.91403198242188,37.492916107177734],[130.91403198242188,37.4923629760745],[130.91430664062523,37.4923629760745],[130.91430664062523,37.49180603027355],[130.91458129882847,37.49180603027355],[130.91458129882847,37.49152755737316],[130.91485595703136,37.49152755737316],[130.91485595703136,37.49097061157238],[130.9137573242191,37.49097061157238],[130.9137573242191,37.48902893066406],[130.91346740722656,37.48902893066406],[130.91346740722656,37.48847198486328],[130.9137573242191,37.48847198486328],[130.9137573242191,37.48819351196312],[130.91403198242188,37.48819351196312],[130.91403198242188,37.487083435058764],[130.91430664062523,37.487083435058764],[130.91430664062523,37.486804962158374],[130.91514587402378,37.486804962158374],[130.91514587402378,37.487083435058764],[130.9159698486328,37.487083435058764],[130.9159698486328,37.48736190795893],[130.91624450683628,37.48736190795893],[130.91624450683628,37.48764038085932],[130.92041015625023,37.48764038085932],[130.92041015625023,37.48736190795893],[130.92070007324241,37.48736190795893],[130.92070007324241,37.487083435058764],[130.92097473144543,37.487083435058764],[130.92097473144543,37.48597335815458],[130.92070007324241,37.48597335815458],[130.92070007324241,37.48513793945324],[130.92041015625023,37.48513793945324],[130.92041015625023,37.48485946655285],[130.92013549804688,37.48485946655285],[130.92013549804688,37.484584808349666],[130.9193115234375,37.484584808349666],[130.9193115234375,37.484306335449276],[130.9190216064453,37.484306335449276],[130.9190216064453,37.484027862548885],[130.91847229003918,37.484027862548885],[130.91847229003918,37.483749389648494],[130.91792297363293,37.483749389648494],[130.91792297363293,37.483470916748104],[130.91763305664097,37.483470916748104],[130.91763305664097,37.48319625854492],[130.91735839843773,37.48319625854492],[130.91735839843773,37.48291778564453],[130.9168090820316,37.48291778564453],[130.9168090820316,37.48263931274414],[130.91624450683628,37.48263931274414],[130.91624450683628,37.48236083984375],[130.9159698486328,37.48236083984375],[130.9159698486328,37.481803894043196],[130.91514587402378,37.481803894043196],[130.91514587402378,37.48152923583996],[130.91485595703136,37.48152923583996],[130.91485595703136,37.481803894043196],[130.91458129882847,37.481803894043196],[130.91458129882847,37.48236083984375],[130.91485595703136,37.48236083984375],[130.91485595703136,37.48291778564453],[130.91403198242188,37.48291778564453],[130.91403198242188,37.48263931274414],[130.91346740722656,37.48263931274414],[130.91346740722656,37.48236083984375],[130.91319274902378,37.48236083984375],[130.91319274902378,37.48263931274414],[130.91235351562545,37.48263931274414],[130.91235351562545,37.48291778564453],[130.91180419921886,37.48291778564453],[130.91180419921886,37.48319625854492],[130.91096496582054,37.48319625854492],[130.91096496582054,37.48291778564453],[130.91041564941406,37.48291778564453],[130.91041564941406,37.48236083984375],[130.91014099121128,37.48236083984375],[130.91014099121128,37.48208236694336],[130.9098663330078,37.48208236694336],[130.9098663330078,37.481803894043196],[130.91014099121128,37.481803894043196],[130.91014099121128,37.48152923583996],[130.91041564941406,37.48152923583996],[130.91041564941406,37.481250762939396],[130.91069030761764,37.481250762939396],[130.91069030761764,37.48014068603521],[130.91041564941406,37.48014068603521],[130.91041564941406,37.47986221313505],[130.91014099121128,37.47986221313505],[130.91014099121128,37.47958374023466],[130.90957641601562,37.47958374023466],[130.90957641601562,37.4793052673341],[130.90930175781295,37.4793052673341],[130.90930175781295,37.47902679443371],[130.90875244140636,37.47902679443371],[130.90875244140636,37.47874832153332],[130.90847778320347,37.47874832153332],[130.90847778320347,37.478195190429744],[130.90818786621105,37.478195190429744],[130.90818786621105,37.47735977172857],[130.90763854980514,37.47735977172857],[130.90763854980514,37.47708511352539],[130.90736389160156,37.47708511352539],[130.90736389160156,37.476806640625],[130.90708923339878,37.476806640625],[130.90708923339878,37.47652816772461],[130.90679931640625,37.47652816772461],[130.90679931640625,37.47624969482422],[130.90513610839855,37.47624969482422],[130.90513610839855,37.47597122192383],[130.90486145019554,37.47597122192383],[130.90486145019554,37.475418090820426],[130.90292358398438,37.475418090820426],[130.90292358398438,37.475139617920036],[130.90235900878918,37.475139617920036],[130.90235900878918,37.474861145019474],[130.90208435058605,37.474861145019474],[130.90208435058605,37.47430419921892],[130.90124511718773,37.47430419921892],[130.90124511718773,37.474582672119084],[130.90069580078125,37.474582672119084],[130.90069580078125,37.474861145019474],[130.90042114257812,37.474861145019474],[130.90042114257812,37.475139617920036],[130.89930725097668,37.475139617920036],[130.89930725097668,37.475418090820426],[130.89819335937523,37.475418090820426],[130.89819335937523,37.47569274902344],[130.8968048095703,37.47569274902344],[130.8968048095703,37.475418090820426],[130.89625549316418,37.475418090820426],[130.89625549316418,37.475139617920036],[130.8956909179691,37.475139617920036],[130.8956909179691,37.474861145019474],[130.89541625976574,37.474861145019474],[130.89541625976574,37.474582672119084],[130.89514160156273,37.474582672119084],[130.89514160156273,37.474861145019474],[130.89486694335983,37.474861145019474],[130.89486694335983,37.474582672119084],[130.8945770263672,37.474582672119084],[130.8945770263672,37.47430419921892],[130.8912506103519,37.47430419921892],[130.8912506103519,37.47402954101568],[130.89097595214844,37.47402954101568],[130.89097595214844,37.47375106811529],[130.89013671875,37.47375106811529],[130.89013671875,37.47347259521513],[130.889862060547,37.47347259521513],[130.889862060547,37.47319412231474],[130.88902282714878,37.47319412231474],[130.88902282714878,37.472915649414176],[130.88874816894554,37.472915649414176],[130.88874816894554,37.472362518310774],[130.8881988525394,37.472362518310774],[130.8881988525394,37.472084045410384],[130.88792419433594,37.472084045410384],[130.88792419433594,37.47180557250982],[130.8876342773441,37.47180557250982],[130.8876342773441,37.47152709960943],[130.88513183593795,37.47152709960943],[130.88513183593795,37.47124862670904],[130.88485717773438,37.47124862670904],[130.88485717773438,37.47097396850603],[130.8845825195316,37.47097396850603],[130.8845825195316,37.47041702270508],[130.884033203125,37.47041702270508],[130.884033203125,37.4698600769043],[130.88374328613327,37.4698600769043],[130.88374328613327,37.469581604003906],[130.88319396972668,37.469581604003906],[130.88319396972668,37.469028472900504],[130.88291931152378,37.469028472900504],[130.88291931152378,37.468750000000114],[130.88235473632835,37.468750000000114],[130.88235473632835,37.46847152709955],[130.88208007812545,37.46847152709955],[130.88208007812545,37.46819305419916],[130.88180541992188,37.46819305419916],[130.88180541992188,37.46791839599615],[130.8815307617191,37.46791839599615],[130.8815307617191,37.46736145019537],[130.88096618652344,37.46736145019537],[130.88096618652344,37.467082977295206],[130.88069152832077,37.467082977295206],[130.88069152832077,37.466526031494254],[130.8804168701172,37.466526031494254],[130.8804168701172,37.466251373291016],[130.88014221191418,37.466251373291016],[130.88014221191418,37.46597290039085],[130.87986755371128,37.46597290039085],[130.87986755371128,37.46569442749046],[130.87957763671886,37.46569442749046],[130.87957763671886,37.4654159545899],[130.87930297851585,37.4654159545899],[130.87930297851585,37.4648628234865],[130.87875366210938,37.4648628234865],[130.87875366210938,37.46458435058611],[130.8784790039066,37.46458435058611],[130.8784790039066,37.464027404785156],[130.87818908691406,37.464027404785156],[130.87818908691406,37.463748931884766],[130.87791442871094,37.463748931884766],[130.87791442871094,37.463195800781364],[130.87763977050827,37.463195800781364],[130.87763977050827,37.46291732788097],[130.8773651123047,37.46291732788097],[130.8773651123047,37.46236038208019],[130.87709045410168,37.46236038208019],[130.87709045410168,37.46208190917963],[130.87652587890636,37.46208190917963],[130.87652587890636,37.46180725097662],[130.87625122070335,37.46180725097662],[130.87625122070335,37.46097183227545],[130.87597656250045,37.46097183227545],[130.87597656250045,37.45958328247093],[130.87625122070335,37.45958328247093],[130.87625122070335,37.45930480957054],[130.87652587890636,37.45930480957054],[130.87652587890636,37.45902633666998],[130.87709045410168,37.45902633666998],[130.87709045410168,37.45930480957054],[130.87791442871094,37.45930480957054],[130.87791442871094,37.45958328247093],[130.87875366210938,37.45958328247093],[130.87875366210938,37.459861755371094],[130.87986755371128,37.459861755371094],[130.87986755371128,37.45902633666998],[130.87930297851585,37.45902633666998],[130.87930297851585,37.45875167846674],[130.87791442871094,37.45875167846674],[130.87791442871094,37.45847320556658],[130.8768005371095,37.45847320556658],[130.8768005371095,37.457916259765625],[130.87652587890636,37.457916259765625],[130.87652587890636,37.457637786865234],[130.87597656250045,37.457637786865234],[130.87597656250045,37.45708465576183],[130.87570190429688,37.45708465576183],[130.87570190429688,37.45652770996105],[130.87541198730514,37.45652770996105],[130.87541198730514,37.45624923706066],[130.87570190429688,37.45624923706066],[130.87570190429688,37.45513916015631],[130.87541198730514,37.45513916015631],[130.87541198730514,37.454860687255916],[130.87570190429688,37.454860687255916],[130.87570190429688,37.454582214355526],[130.87597656250045,37.454582214355526],[130.87597656250045,37.454860687255916],[130.87625122070335,37.454860687255916],[130.87625122070335,37.45430374145536],[130.87597656250045,37.45430374145536],[130.87597656250045,37.45375061035156],[130.87570190429688,37.45375061035156],[130.87570190429688,37.45347213745117],[130.87513732910156,37.45347213745117],[130.87513732910156,37.45319366455101],[130.87486267089844,37.45319366455101],[130.87486267089844,37.45291519165062],[130.873748779297,37.45291519165062],[130.873748779297,37.45319366455101],[130.87402343750045,37.45319366455101],[130.87402343750045,37.45375061035156],[130.87347412109386,37.45375061035156],[130.87347412109386,37.45319366455101],[130.87290954589855,37.45319366455101],[130.87290954589855,37.45347213745117],[130.87263488769554,37.45347213745117],[130.87263488769554,37.45375061035156],[130.87208557128906,37.45375061035156],[130.87208557128906,37.45402908325195],[130.87152099609375,37.45402908325195],[130.87152099609375,37.454582214355526],[130.87124633789062,37.454582214355526],[130.87124633789062,37.45569610595709],[130.87097167968795,37.45569610595709],[130.87097167968795,37.45597076416027],[130.8706970214845,37.45597076416027],[130.8706970214845,37.45624923706066],[130.87042236328136,37.45624923706066],[130.87042236328136,37.45708465576183],[130.8701324462894,37.45708465576183],[130.8701324462894,37.457359313964844],[130.86958312988304,37.457359313964844],[130.86958312988304,37.457637786865234],[130.86903381347656,37.457637786865234],[130.86903381347656,37.458194732666186],[130.86846923828125,37.458194732666186],[130.86846923828125,37.45875167846674],[130.86680603027355,37.45875167846674],[130.86680603027355,37.45902633666998],[130.86653137207054,37.45902633666998],[130.86653137207054,37.45930480957054],[130.86514282226562,37.45930480957054],[130.86514282226562,37.45958328247093],[130.8643035888673,37.45958328247093],[130.8643035888673,37.459861755371094],[130.8640289306644,37.459861755371094],[130.8640289306644,37.460140228271484],[130.86264038085972,37.460140228271484],[130.86264038085972,37.459861755371094],[130.8606872558595,37.459861755371094],[130.8606872558595,37.460140228271484],[130.8584747314453,37.460140228271484],[130.8584747314453,37.45958328247093],[130.857635498047,37.45958328247093],[130.857635498047,37.459861755371094],[130.85708618164085,37.459861755371094],[130.85708618164085,37.45930480957054],[130.8568115234375,37.45930480957054],[130.8568115234375,37.460414886474894],[130.8562469482422,37.460414886474894],[130.8562469482422,37.460693359375284],[130.85569763183594,37.460693359375284],[130.85569763183594,37.459861755371094],[130.8545837402345,37.459861755371094],[130.8545837402345,37.460140228271484],[130.8543090820316,37.460140228271484],[130.8543090820316,37.460414886474894],[130.85403442382835,37.460414886474894],[130.85403442382835,37.460693359375284],[130.8543090820316,37.460693359375284],[130.8543090820316,37.46097183227545],[130.85403442382835,37.46097183227545],[130.85403442382835,37.46125030517584],[130.85374450683616,37.46125030517584],[130.85374450683616,37.46152877807623],[130.8531951904297,37.46152877807623],[130.8531951904297,37.46180725097662],[130.85235595703125,37.46180725097662],[130.85235595703125,37.46208190917963],[130.85208129882858,37.46208190917963],[130.85208129882858,37.46236038208019],[130.851531982422,37.46236038208019],[130.851531982422,37.46291732788097],[130.85041809082077,37.46291732788097],[130.85041809082077,37.463470458984375],[130.8501434326172,37.463470458984375],[130.8501434326172,37.463748931884766],[130.84985351562545,37.463748931884766],[130.84985351562545,37.463470458984375],[130.84930419921875,37.463470458984375],[130.84930419921875,37.463195800781364],[130.84902954101608,37.463195800781364],[130.84902954101608,37.463470458984375],[130.84791564941418,37.463470458984375],[130.84791564941418,37.463195800781364],[130.84597778320358,37.463195800781364],[130.84597778320358,37.463470458984375],[130.84568786621094,37.463470458984375],[130.84568786621094,37.463195800781364],[130.84541320800827,37.463195800781364],[130.84541320800827,37.46291732788097],[130.8451385498048,37.46291732788097],[130.8451385498048,37.463470458984375],[130.84486389160168,37.463470458984375],[130.84486389160168,37.463748931884766],[130.84429931640636,37.463748931884766],[130.84429931640636,37.463470458984375],[130.84402465820335,37.463470458984375],[130.84402465820335,37.463195800781364],[130.84347534179688,37.463195800781364],[130.84347534179688,37.46291732788097],[130.84291076660156,37.46291732788097],[130.84291076660156,37.46263885498058],[130.84263610839844,37.46263885498058],[130.84263610839844,37.46236038208019],[130.84236145019577,37.46236038208019],[130.84236145019577,37.46263885498058],[130.8420867919923,37.46263885498058],[130.8420867919923,37.46208190917963],[130.84181213378918,37.46208190917963],[130.84181213378918,37.46236038208019],[130.84124755859386,37.46236038208019],[130.84124755859386,37.46263885498058],[130.84069824218795,37.46263885498058],[130.84069824218795,37.46291732788097],[130.83985900878906,37.46291732788097],[130.83985900878906,37.463470458984375],[130.83958435058594,37.463470458984375],[130.83958435058594,37.463748931884766],[130.83930969238327,37.463748931884766],[130.83930969238327,37.46430587768555],[130.8390350341798,37.46430587768555],[130.8390350341798,37.46458435058611],[130.8387451171876,37.46458435058611],[130.8387451171876,37.4648628234865],[130.83847045898472,37.4648628234865],[130.83847045898472,37.46513748168951],[130.83792114257835,37.46513748168951],[130.83792114257835,37.4654159545899],[130.8373565673828,37.4654159545899],[130.8373565673828,37.46569442749046],[130.83541870117222,37.46569442749046],[130.83541870117222,37.46597290039085],[130.83514404296886,37.46597290039085],[130.83514404296886,37.466251373291016],[130.83457946777366,37.466251373291016],[130.83457946777366,37.466804504394815],[130.83291625976562,37.466804504394815],[130.83291625976562,37.466526031494254],[130.8326416015626,37.466526031494254],[130.8326416015626,37.466251373291016],[130.83236694335972,37.466251373291016],[130.83236694335972,37.466526031494254],[130.83152770996116,37.466526031494254],[130.83152770996116,37.466804504394815],[130.8312530517578,37.466804504394815],[130.8312530517578,37.467082977295206],[130.83097839355503,37.467082977295206],[130.83097839355503,37.46736145019537],[130.83013916015625,37.46736145019537],[130.83013916015625,37.46763992309576],[130.82986450195312,37.46763992309576],[130.82986450195312,37.46791839599615],[130.8290252685548,37.46791839599615],[130.8290252685548,37.46763992309576],[130.8287506103519,37.46763992309576],[130.8287506103519,37.466804504394815],[130.82847595214866,37.466804504394815],[130.82847595214866,37.46736145019537],[130.8282012939453,37.46736145019537],[130.8282012939453,37.46763992309576],[130.82763671875,37.46763992309576],[130.82763671875,37.46791839599615],[130.8282012939453,37.46791839599615],[130.8282012939453,37.46847152709955],[130.82847595214866,37.46847152709955],[130.82847595214866,37.468750000000114],[130.8282012939453,37.468750000000114],[130.8282012939453,37.469028472900504],[130.82708740234375,37.469028472900504],[130.82708740234375,37.469306945800895],[130.82791137695358,37.469306945800895],[130.82791137695358,37.47013854980469],[130.82763671875,37.47013854980469],[130.82763671875,37.47041702270508],[130.82708740234375,37.47041702270508],[130.82708740234375,37.469581604003906],[130.8265228271489,37.469581604003906],[130.8265228271489,37.47013854980469],[130.8262481689453,37.47013854980469],[130.8262481689453,37.47069549560547],[130.82681274414062,37.47069549560547],[130.82681274414062,37.47097396850603],[130.82708740234375,37.47097396850603],[130.82708740234375,37.47124862670904],[130.82681274414062,37.47124862670904],[130.82681274414062,37.47180557250982],[130.8265228271489,37.47180557250982],[130.8265228271489,37.47152709960943],[130.8259735107423,37.47152709960943],[130.8259735107423,37.47180557250982],[130.8256988525394,37.47180557250982],[130.8256988525394,37.47152709960943],[130.82485961914108,37.47152709960943],[130.82485961914108,37.47180557250982],[130.8245849609375,37.47180557250982],[130.8245849609375,37.472084045410384],[130.82431030273472,37.472084045410384],[130.82431030273472,37.47180557250982],[130.8234710693364,37.47180557250982],[130.8234710693364,37.472084045410384],[130.8229217529298,37.472084045410384],[130.8229217529298,37.472362518310774],[130.82208251953148,37.472362518310774],[130.82208251953148,37.472637176513786],[130.82069396972656,37.472637176513786],[130.82069396972656,37.472915649414176],[130.8204193115239,37.472915649414176],[130.8204193115239,37.472637176513786],[130.81985473632858,37.472637176513786],[130.81985473632858,37.472362518310774],[130.81707763671875,37.472362518310774],[130.81707763671875,37.472084045410384],[130.8162536621095,37.472084045410384],[130.8162536621095,37.472362518310774],[130.81597900390648,37.472362518310774],[130.81597900390648,37.472637176513786],[130.81459045410156,37.472637176513786],[130.81459045410156,37.472915649414176],[130.81291198730503,37.472915649414176],[130.81291198730503,37.47319412231474],[130.81208801269577,37.47319412231474],[130.81208801269577,37.47347259521513],[130.81152343750034,37.47347259521513],[130.81152343750034,37.47375106811529],[130.81069946289108,37.47375106811529],[130.81069946289108,37.47402954101568],[130.81040954589844,37.47402954101568],[130.81040954589844,37.47430419921892],[130.81013488769543,37.47430419921892],[130.81013488769543,37.474582672119084],[130.80958557128918,37.474582672119084],[130.80958557128918,37.474861145019474],[130.80931091308616,37.474861145019474],[130.80931091308616,37.475418090820426],[130.80902099609398,37.475418090820426],[130.80902099609398,37.47624969482422],[130.80874633789062,37.47624969482422],[130.80874633789062,37.47708511352539],[130.80847167968784,37.47708511352539],[130.80847167968784,37.47874832153332],[130.80874633789062,37.47874832153332],[130.80874633789062,37.47958374023466],[130.80847167968784,37.47958374023466],[130.80847167968784,37.47986221313505],[130.80819702148438,37.47986221313505],[130.80819702148438,37.48014068603521],[130.80792236328125,37.48014068603521],[130.80792236328125,37.480972290039006],[130.80763244628906,37.480972290039006],[130.80763244628906,37.481250762939396],[130.80680847168003,37.481250762939396],[130.80680847168003,37.48152923583996],[130.80653381347668,37.48152923583996],[130.80653381347668,37.481803894043196],[130.80624389648472,37.481803894043196],[130.80624389648472,37.48208236694336],[130.80569458007812,37.48208236694336],[130.80569458007812,37.48236083984375],[130.80541992187534,37.48236083984375],[130.80541992187534,37.48263931274414],[130.80458068847656,37.48263931274414],[130.80458068847656,37.48291778564453],[130.80319213867222,37.48291778564453],[130.80319213867222,37.48319625854492],[130.80264282226562,37.48319625854492],[130.80264282226562,37.483470916748104],[130.80180358886753,37.483470916748104],[130.80180358886753,37.484306335449276],[130.80152893066406,37.484306335449276],[130.80152893066406,37.48569488525402],[130.80125427246094,37.48569488525402],[130.80125427246094,37.486804962158374],[130.80152893066406,37.486804962158374],[130.80152893066406,37.48902893066406],[130.80180358886753,37.48902893066406],[130.80180358886753,37.49124908447277],[130.8020782470703,37.49124908447277],[130.8020782470703,37.49097061157238],[130.80236816406284,37.49097061157238],[130.80236816406284,37.49152755737316],[130.8020782470703,37.49152755737316],[130.8020782470703,37.49180603027355],[130.80291748046898,37.49180603027355],[130.80291748046898,37.4923629760745],[130.8020782470703,37.4923629760745],[130.8020782470703,37.492637634277344],[130.80180358886753,37.492637634277344],[130.80180358886753,37.492916107177734],[130.80125427246094,37.492916107177734],[130.80125427246094,37.493194580078296],[130.80097961425793,37.493194580078296],[130.80097961425793,37.49402618408209],[130.80125427246094,37.49402618408209],[130.80125427246094,37.49430465698265],[130.80264282226562,37.49430465698265],[130.80264282226562,37.49458312988304],[130.80291748046898,37.49458312988304],[130.80291748046898,37.49652862548834],[130.80319213867222,37.49652862548834],[130.80319213867222,37.49708175659174],[130.8034667968751,37.49708175659174],[130.8034667968751,37.4973602294923],[130.80375671386753,37.4973602294923],[130.80375671386753,37.49763870239269],[130.80403137207043,37.49763870239269],[130.80403137207043,37.49791717529308],[130.80430603027344,37.49791717529308],[130.80430603027344,37.499027252197266],[130.80403137207043,37.499027252197266],[130.80403137207043,37.499305725097656],[130.80375671386753,37.499305725097656],[130.80375671386753,37.49958419799822],[130.8034667968751,37.49958419799822],[130.8034667968751,37.49986267089861],[130.80291748046898,37.49986267089861],[130.80291748046898,37.50013732910162],[130.80125427246094,37.50013732910162],[130.80125427246094,37.50097274780296],[130.80152893066406,37.50097274780296],[130.80152893066406,37.501525878906364],[130.80180358886753,37.501529693603516],[130.80180358886753,37.501804351806925],[130.80264282226562,37.501804351806925],[130.80264282226562,37.502082824707315],[130.80319213867222,37.502082824707315],[130.80319213867222,37.50236129760748],[130.80375671386753,37.50236129760748],[130.80375671386753,37.50263977050787],[130.80430603027344,37.50263977050787],[130.80430603027344,37.50291824340826],[130.80458068847656,37.50291824340826],[130.80458068847656,37.50374984741222],[130.80430603027344,37.50374984741222],[130.80430603027344,37.504306793213004],[130.80403137207043,37.504306793213004],[130.80403137207043,37.504581451416016],[130.80375671386753,37.504581451416016],[130.80375671386753,37.504859924316406],[130.8034667968751,37.504859924316406],[130.8034667968751,37.5051383972168],[130.80319213867222,37.5051383972168],[130.80319213867222,37.50541687011719],[130.80291748046898,37.50541687011719],[130.80291748046898,37.50569534301758],[130.80236816406284,37.50569534301758],[130.80236816406284,37.50597381591814],[130.80180358886753,37.50597381591814],[130.80180358886753,37.50624847412115],[130.80236816406284,37.50624847412115],[130.80236816406284,37.50652694702154],[130.80291748046898,37.50652694702154],[130.80291748046898,37.50680541992193],[130.8020782470703,37.50680541992193],[130.8020782470703,37.50652694702154],[130.80125427246094,37.50652694702154],[130.80125427246094,37.50708389282249],[130.80068969726562,37.50708389282249],[130.80068969726562,37.507362365722884],[130.7990264892578,37.507362365722884],[130.7990264892578,37.507637023925895],[130.7993011474614,37.507637023925895],[130.7993011474614,37.50819396972685],[130.7995758056643,37.50819396972685],[130.7995758056643,37.5087509155274],[130.7993011474614,37.5087509155274],[130.7993011474614,37.50902938842779],[130.7990264892578,37.50902938842779],[130.7990264892578,37.50930404663103],[130.79847717285156,37.50930404663103],[130.79847717285156,37.50958251953119],[130.79708862304722,37.50958251953119],[130.79708862304722,37.51069259643555],[130.7973632812501,37.51069259643555],[130.7973632812501,37.51097106933594],[130.79763793945312,37.51097106933594],[130.79763793945312,37.51180648803711],[130.7973632812501,37.51180648803711],[130.7973632812501,37.5120849609375],[130.79708862304722,37.5120849609375],[130.79708862304722,37.51235961914068],[130.7967987060548,37.51235961914068],[130.7967987060548,37.51291656494146],[130.7965240478518,37.51291656494146],[130.7965240478518,37.513195037841854],[130.7959747314453,37.513195037841854],[130.7959747314453,37.513473510742415],[130.79570007324253,37.513473510742415],[130.79570007324253,37.513748168945426],[130.7948608398442,37.513748168945426],[130.7948608398442,37.513473510742415],[130.79458618164062,37.513473510742415],[130.79458618164062,37.51291656494146],[130.7934722900393,37.51291656494146],[130.7934722900393,37.513195037841854],[130.7929229736328,37.513195037841854],[130.7929229736328,37.513473510742415],[130.7923583984375,37.513473510742415],[130.7923583984375,37.51430511474621],[130.7929229736328,37.51430511474621],[130.7929229736328,37.51458358764677],[130.7931976318364,37.51458358764677],[130.7931976318364,37.51514053344732],[130.7929229736328,37.51514053344732],[130.7929229736328,37.51569366455095],[130.79263305664108,37.51569366455095],[130.79263305664108,37.515972137451115],[130.7923583984375,37.515972137451115],[130.7923583984375,37.516250610351506],[130.79208374023438,37.516250610351506],[130.79208374023438,37.51652908325207],[130.7918090820317,37.51652908325207],[130.7918090820317,37.516803741455305],[130.79153442382812,37.516803741455305],[130.79153442382812,37.51708221435547],[130.7912445068364,37.51708221435547],[130.7912445068364,37.51736068725586],[130.79096984863293,37.51736068725586],[130.79096984863293,37.51763916015625],[130.7912445068364,37.51763916015625],[130.7912445068364,37.518749237060604],[130.79153442382812,37.518749237060604],[130.79153442382812,37.519306182861385],[130.7918090820317,37.519306182861385],[130.7918090820317,37.519584655761776],[130.79208374023438,37.519584655761776],[130.79208374023438,37.51985931396496],[130.7923583984375,37.51985931396496],[130.7923583984375,37.52013778686535],[130.79263305664108,37.52013778686535],[130.79263305664108,37.52041625976574],[130.7929229736328,37.52041625976574],[130.7929229736328,37.52069473266613],[130.7931976318364,37.52069473266613],[130.7931976318364,37.522083282470874],[130.7929229736328,37.522083282470874],[130.7929229736328,37.52236175537104],[130.79263305664108,37.52236175537104],[130.79263305664108,37.52291488647484],[130.7929229736328,37.52291488647484],[130.7929229736328,37.52347183227539],[130.7931976318364,37.52347183227539],[130.7931976318364,37.52319335937523],[130.7943115234376,37.52319335937523],[130.7943115234376,37.52347183227539],[130.79458618164062,37.52347183227539],[130.79458618164062,37.52375030517578],[130.79541015625,37.52375030517578],[130.79541015625,37.52347183227539],[130.79570007324253,37.52347183227539],[130.79570007324253,37.52291488647484],[130.79541015625,37.52291488647484],[130.79541015625,37.52236175537104],[130.79570007324253,37.52236175537104],[130.79570007324253,37.522083282470874],[130.79541015625,37.522083282470874],[130.79541015625,37.52152633666992],[130.79570007324253,37.52152633666992],[130.79570007324253,37.52097320556669],[130.7959747314453,37.52097320556669],[130.7959747314453,37.51985931396496],[130.7990264892578,37.51985931396496],[130.7990264892578,37.519584655761776],[130.7995758056643,37.519584655761776],[130.7995758056643,37.519306182861385],[130.8004150390626,37.519306182861385],[130.8004150390626,37.519027709960994],[130.80152893066406,37.519027709960994],[130.80152893066406,37.518749237060604],[130.8020782470703,37.518749237060604],[130.8020782470703,37.519027709960994],[130.80236816406284,37.519027709960994],[130.80236816406284,37.519306182861385],[130.80291748046898,37.519306182861385],[130.80291748046898,37.519584655761776],[130.80319213867222,37.519584655761776],[130.80319213867222,37.51985931396496],[130.8034667968751,37.51985931396496],[130.8034667968751,37.52041625976574],[130.80375671386753,37.52041625976574],[130.80375671386753,37.52069473266613],[130.80403137207043,37.52069473266613],[130.80403137207043,37.52097320556669],[130.80430603027344,37.52097320556669],[130.80430603027344,37.52125167846708],[130.80458068847656,37.52125167846708],[130.80458068847656,37.52152633666992],[130.80485534668003,37.52152633666992],[130.80485534668003,37.52180480957048],[130.80514526367188,37.52180480957048],[130.80514526367188,37.522083282470874],[130.80680847168003,37.522083282470874],[130.80680847168003,37.52180480957048],[130.80763244628906,37.52180480957048],[130.80763244628906,37.52152633666992],[130.80847167968784,37.52152633666992],[130.80847167968784,37.52125167846708],[130.81040954589844,37.52125167846708],[130.81040954589844,37.52152633666992],[130.81124877929688,37.52152633666992],[130.81124877929688,37.52180480957048],[130.81152343750034,37.52180480957048],[130.81152343750034,37.522083282470874],[130.81179809570312,37.522083282470874],[130.81179809570312,37.52236175537104],[130.81208801269577,37.52236175537104],[130.81208801269577,37.52264022827143],[130.81236267089866,37.52264022827143],[130.81236267089866,37.52291488647484],[130.8134765625001,37.52291488647484],[130.8134765625001,37.52319335937523],[130.81375122070358,37.52319335937523],[130.81375122070358,37.52347183227539],[130.81402587890625,37.52347183227539],[130.81402587890625,37.52375030517578],[130.81430053710938,37.52375030517578],[130.81430053710938,37.52402877807617],[130.81459045410156,37.52402877807617],[130.81459045410156,37.52430725097656],[130.8148651123047,37.52430725097656],[130.8148651123047,37.524581909179744],[130.81513977050827,37.524581909179744],[130.81513977050827,37.524860382080135],[130.81541442871116,37.524860382080135],[130.81541442871116,37.525138854980526],[130.81597900390648,37.525138854980526],[130.81597900390648,37.525417327880916],[130.8165283203126,37.525417327880916],[130.8165283203126,37.52569580078131],[130.81707763671875,37.52569580078131],[130.81707763671875,37.52597045898449],[130.8173675537114,37.52597045898449],[130.8173675537114,37.52624893188488],[130.81764221191406,37.52624893188488],[130.81764221191406,37.52652740478527],[130.81875610351608,37.52652740478527],[130.81875610351608,37.52680587768566],[130.8195800781251,37.52680587768566],[130.8195800781251,37.52708435058605],[130.821533203125,37.52708435058605],[130.821533203125,37.52736282348661],[130.82180786132858,37.52736282348661],[130.82180786132858,37.527915954589844],[130.82208251953148,37.527915954589844],[130.82208251953148,37.528472900390796],[130.8223571777345,37.528472900390796],[130.8223571777345,37.52875137329096],[130.8226318359376,37.52875137329096],[130.8226318359376,37.52930450439476],[130.8229217529298,37.52930450439476],[130.8229217529298,37.52958297729515],[130.8231964111328,37.52958297729515],[130.8231964111328,37.5301399230957],[130.82542419433616,37.5301399230957],[130.82542419433616,37.530418395996094],[130.8256988525394,37.530418395996094],[130.8256988525394,37.5306930541995],[130.8262481689453,37.5306930541995],[130.8262481689453,37.530418395996094],[130.8265228271489,37.530418395996094],[130.8265228271489,37.5301399230957],[130.82708740234375,37.5301399230957],[130.82708740234375,37.52986145019531],[130.82791137695358,37.52986145019531],[130.82791137695358,37.5301399230957],[130.8282012939453,37.5301399230957],[130.8282012939453,37.52958297729515],[130.82791137695358,37.52958297729515],[130.82791137695358,37.5290260314942],[130.82736206054722,37.5290260314942],[130.82736206054722,37.52875137329096],[130.82485961914108,37.52875137329096],[130.82485961914108,37.5290260314942],[130.82431030273472,37.5290260314942],[130.82431030273472,37.52875137329096],[130.8240203857422,37.52875137329096],[130.8240203857422,37.528194427490405],[130.8234710693364,37.528194427490405],[130.8234710693364,37.527915954589844],[130.8231964111328,37.527915954589844],[130.8231964111328,37.52763748168945],[130.8234710693364,37.52763748168945],[130.8234710693364,37.52736282348661],[130.8240203857422,37.52736282348661],[130.8240203857422,37.52708435058605],[130.82431030273472,37.52708435058605],[130.82431030273472,37.52680587768566],[130.82485961914108,37.52680587768566],[130.82485961914108,37.52652740478527],[130.8262481689453,37.52652740478527],[130.8262481689453,37.52680587768566],[130.82847595214866,37.52680587768566],[130.82847595214866,37.52708435058605],[130.8287506103519,37.52708435058605],[130.8287506103519,37.52736282348661],[130.8295898437501,37.52736282348661],[130.8295898437501,37.52763748168945],[130.82986450195312,37.52763748168945],[130.82986450195312,37.527915954589844],[130.83013916015625,37.527915954589844],[130.83013916015625,37.528472900390796],[130.82986450195312,37.528472900390796],[130.82986450195312,37.52875137329096],[130.8295898437501,37.52875137329096],[130.8295898437501,37.5290260314942],[130.8292999267578,37.5290260314942],[130.8292999267578,37.52930450439476],[130.8290252685548,37.52930450439476],[130.8290252685548,37.52958297729515],[130.8287506103519,37.52958297729515],[130.8287506103519,37.530418395996094],[130.8290252685548,37.530418395996094],[130.8290252685548,37.5306930541995],[130.8292999267578,37.5306930541995],[130.8292999267578,37.530418395996094],[130.8295898437501,37.530418395996094],[130.8295898437501,37.5301399230957],[130.82986450195312,37.5301399230957],[130.82986450195312,37.52986145019531],[130.83013916015625,37.52986145019531],[130.83013916015625,37.52958297729515],[130.83041381835972,37.52958297729515],[130.83041381835972,37.52930450439476],[130.8306884765625,37.52930450439476],[130.8306884765625,37.5290260314942],[130.83097839355503,37.5290260314942],[130.83097839355503,37.52930450439476],[130.8312530517578,37.52930450439476],[130.8312530517578,37.52958297729515],[130.83152770996116,37.52958297729515],[130.83152770996116,37.52986145019531],[130.8320770263673,37.52986145019531],[130.8320770263673,37.5301399230957],[130.8326416015626,37.5301399230957],[130.8326416015626,37.530418395996094],[130.83319091796875,37.530418395996094],[130.83319091796875,37.5306930541995],[130.83457946777366,37.5306930541995],[130.83457946777366,37.530971527099666],[130.8356933593751,37.530971527099666],[130.8356933593751,37.53125],[130.83596801757812,37.53125],[130.83596801757812,37.53152847290045],[130.83653259277344,37.53152847290045],[130.83653259277344,37.53180694580084],[130.83708190918003,37.53180694580084],[130.83708190918003,37.53208160400385],[130.83764648437545,37.53208160400385],[130.83764648437545,37.53236007690441],[130.83847045898472,37.53236007690441],[130.83847045898472,37.5326385498048],[130.8387451171876,37.5326385498048],[130.8387451171876,37.53291702270519],[130.83930969238327,37.53291702270519],[130.83930969238327,37.53319549560558],[130.83985900878906,37.53319549560558],[130.83985900878906,37.53347396850597],[130.84042358398438,37.53347396850597],[130.84042358398438,37.533748626708984],[130.84069824218795,37.533748626708984],[130.84069824218795,37.534027099609375],[130.84097290039085,37.534027099609375],[130.84097290039085,37.534305572509766],[130.84124755859386,37.534305572509766],[130.84124755859386,37.53458404541033],[130.84152221679722,37.53458404541033],[130.84152221679722,37.53486251831072],[130.84347534179688,37.53486251831072],[130.84347534179688,37.53513717651373],[130.84429931640636,37.53513717651373],[130.84429931640636,37.53541564941412],[130.84486389160168,37.53541564941412],[130.84486389160168,37.53569412231468],[130.84707641601585,37.53569412231468],[130.84707641601585,37.53597259521507],[130.84736633300827,37.53597259521507],[130.84736633300827,37.53569412231468],[130.8481903076173,37.53569412231468],[130.8481903076173,37.53541564941412],[130.84930419921875,37.53541564941412],[130.84930419921875,37.53513717651373],[130.84985351562545,37.53513717651373],[130.84985351562545,37.53486251831072],[130.85403442382835,37.53486251831072],[130.85403442382835,37.53513717651373],[130.86013793945335,37.53513717651373],[130.86013793945335,37.53541564941412],[130.8604125976566,37.53541564941412],[130.8604125976566,37.53569412231468],[130.8606872558595,37.53569412231468],[130.8606872558595,37.53597259521507],[130.8612518310548,37.53597259521507],[130.8612518310548,37.536251068115234],[130.86236572265625,37.536251068115234],[130.86236572265625,37.536529541015625],[130.8629150390625,37.536529541015625],[130.8629150390625,37.536804199219034],[130.86569213867222,37.536804199219034],[130.86569213867222,37.537082672119425],[130.8670806884769,37.537082672119425],[130.8670806884769,37.53736114501959],[130.8673553466798,37.53736114501959],[130.8673553466798,37.53763961791998],[130.867645263672,37.53763961791998],[130.867645263672,37.53791809082037],[130.86791992187545,37.53791809082037],[130.86791992187545,37.53819274902338],[130.86819458007812,37.53819274902338],[130.86819458007812,37.53874969482433],[130.86846923828125,37.53874969482433],[130.86846923828125,37.53902816772472],[130.86874389648472,37.53902816772472],[130.86874389648472,37.539306640625114],[130.86903381347656,37.539306640625114],[130.86903381347656,37.539585113525504],[130.86930847168014,37.539585113525504],[130.86930847168014,37.539859771728516],[130.86958312988304,37.539859771728516],[130.86958312988304,37.54069519042969],[130.87042236328136,37.54069519042969],[130.87042236328136,37.54097366333025],[130.87124633789062,37.54097366333025],[130.87124633789062,37.54124832153326],[130.87181091308594,37.54124832153326],[130.87181091308594,37.54152679443365],[130.87236022949264,37.54152679443365],[130.87236022949264,37.54180526733404],[130.87290954589855,37.54180526733404],[130.87290954589855,37.5420837402346],[130.87319946289085,37.5420837402346],[130.87319946289085,37.542915344238395],[130.87347412109386,37.542915344238395],[130.87347412109386,37.543193817138956],[130.87402343750045,37.543193817138956],[130.87402343750045,37.54347229003935],[130.8815307617191,37.54347229003935],[130.8815307617191,37.543193817138956],[130.8854217529297,37.543193817138956],[130.8854217529297,37.542915344238395],[130.88735961914062,37.542915344238395],[130.88735961914062,37.542640686035156],[130.8876342773441,37.542640686035156],[130.8876342773441,37.54236221313499],[130.88792419433594,37.54236221313499],[130.88792419433594,37.5420837402346],[130.8884735107422,37.5420837402346],[130.8884735107422,37.54180526733404],[130.88874816894554,37.54180526733404],[130.88874816894554,37.54152679443365],[130.8895874023441,37.54152679443365],[130.8895874023441,37.54124832153326],[130.8915252685547,37.54124832153326],[130.8915252685547,37.54152679443365],[130.89236450195324,37.54152679443365],[130.89236450195324,37.54180526733404],[130.8929138183595,37.54180526733404],[130.8929138183595,37.5420837402346],[130.89347839355514,37.5420837402346],[130.89347839355514,37.54236221313499],[130.8937530517578,37.54236221313499],[130.8937530517578,37.542640686035156],[130.8943023681644,37.542640686035156],[130.8943023681644,37.542915344238395],[130.8945770263672,37.542915344238395],[130.8945770263672,37.54347229003935],[130.89486694335983,37.54347229003935],[130.89486694335983,37.5440292358399],[130.89514160156273,37.5440292358399],[130.89514160156273,37.54430389404314],[130.89541625976574,37.54430389404314],[130.89541625976574,37.5445823669433],[130.8956909179691,37.5445823669433],[130.8956909179691,37.545139312744254],[130.895965576172,37.545139312744254],[130.895965576172,37.545417785644645],[130.89625549316418,37.545417785644645],[130.89625549316418,37.545696258545036],[130.89653015136764,37.545696258545036],[130.89653015136764,37.54597091674805],[130.8968048095703,37.54597091674805],[130.8968048095703,37.54624938964844],[130.8973541259769,37.54624938964844],[130.8973541259769,37.54652786254883],[130.89764404296875,37.54652786254883],[130.89764404296875,37.54680633544922],[130.89791870117233,37.54680633544922],[130.89791870117233,37.54708480834961],[130.89819335937523,37.54708480834961],[130.89819335937523,37.54735946655279],[130.89846801757824,37.54735946655279],[130.89846801757824,37.54763793945318],[130.8987426757816,37.54763793945318],[130.8987426757816,37.54791641235357],[130.89930725097668,37.54791641235357],[130.89930725097668,37.54819488525396],[130.8998565673828,37.54819488525396],[130.8998565673828,37.548473358154524],[130.90042114257812,37.548473358154524],[130.90042114257812,37.548751831054915],[130.90153503418014,37.548751831054915],[130.90153503418014,37.549026489257926],[130.90319824218795,37.549026489257926],[130.90319824218795,37.548751831054915],[130.90402221679733,37.548751831054915],[130.90402221679733,37.549026489257926],[130.90431213378906,37.549026489257926],[130.90431213378906,37.54930496215832],[130.90458679199264,37.54930496215832],[130.90458679199264,37.549026489257926],[130.90541076660168,37.549026489257926],[130.90541076660168,37.548751831054915],[130.90570068359386,37.548751831054915],[130.90570068359386,37.548473358154524],[130.90625000000045,37.548473358154524],[130.90625000000045,37.548751831054915],[130.90652465820312,37.548751831054915],[130.90652465820312,37.54958343505888],[130.90902709960938,37.54958343505888],[130.90902709960938,37.549026489257926],[130.90875244140636,37.549026489257926]]]]}},{"type":"Feature","properties":{"name":"독도","district":"울릉군","kind":"dokdo-marker"},"geometry":{"type":"Point","coordinates":[131.8649,37.241]}}]}