{"type":"FeatureCollection", "features": [
{"type":"Feature","geometry":{"type":"MultiPolygon","coordinates":[[[[126.160141,33.312916],[126.158752,33.312084],[126.159302,33.310139],[126.161804,33.310139],[126.162918,33.312084],[126.160141,33.312916]]],[[[126.149582,33.314583],[126.147636,33.314304],[126.147087,33.312916],[126.144028,33.312637],[126.143196,33.310974],[126.145416,33.309582],[126.148476,33.309582],[126.149864,33.309029],[126.150139,33.307362],[126.152641,33.307083],[126.152641,33.308472],[126.151253,33.310696],[126.153473,33.311806],[126.149582,33.314583]]],[[[126.229584,33.41264],[126.226524,33.41264],[126.222641,33.411251],[126.221252,33.408195],[126.222084,33.405693],[126.227638,33.402916],[126.228752,33.402637],[126.230141,33.40514],[126.231247,33.40514],[126.232635,33.407917],[126.232361,33.410973],[126.229584,33.41264]]],[[[126.535416,33.525139],[126.533195,33.52264],[126.532364,33.52264],[126.527916,33.518471],[126.520142,33.519306],[126.516525,33.519306],[126.515976,33.517082],[126.514862,33.516251],[126.510414,33.516251],[126.501251,33.517918],[126.500137,33.520138],[126.497086,33.521526],[126.493469,33.521526],[126.493195,33.520416],[126.490417,33.520416],[126.485695,33.517918],[126.484024,33.515141],[126.483192,33.511806],[126.482086,33.510693],[126.479584,33.510418],[126.477638,33.509583],[126.472084,33.510139],[126.471802,33.509583],[126.467918,33.509861],[126.466248,33.508751],[126.466248,33.506527],[126.464027,33.506527],[126.464859,33.509029],[126.463753,33.509304],[126.462914,33.507362],[126.46347,33.505974],[126.462914,33.50375],[126.461525,33.504581],[126.460136,33.504028],[126.457085,33.504028],[126.456528,33.502361],[126.454308,33.500416],[126.453751,33.498474],[126.45208,33.49736],[126.450142,33.49736],[126.447083,33.498196],[126.445969,33.499306],[126.443192,33.499027],[126.440697,33.49625],[126.439308,33.495693],[126.434303,33.495419],[126.432358,33.494583],[126.428474,33.494583],[126.426804,33.495693],[126.423752,33.495693],[126.42292,33.494026],[126.419861,33.493473],[126.419861,33.490971],[126.417641,33.490417],[126.41597,33.491249],[126.410698,33.491249],[126.409027,33.490696],[126.408195,33.48875],[126.407639,33.485416],[126.405693,33.485416],[126.405136,33.486526],[126.401802,33.486526],[126.400696,33.484028],[126.398476,33.483471],[126.397636,33.484585],[126.394302,33.484585],[126.392914,33.487083],[126.391808,33.487362],[126.391525,33.489861],[126.385414,33.489861],[126.382362,33.487915],[126.380692,33.484306],[126.377914,33.484028],[126.374863,33.483196],[126.372643,33.481529],[126.370972,33.481804],[126.37014,33.480141],[126.367638,33.478195],[126.366806,33.479027],[126.362915,33.479027],[126.361809,33.479584],[126.356247,33.479305],[126.353195,33.477917],[126.352364,33.474583],[126.350693,33.473751],[126.346802,33.473751],[126.345413,33.472084],[126.340416,33.470695],[126.339302,33.468472],[126.337914,33.467361],[126.333191,33.467361],[126.332359,33.470417],[126.32486,33.466805],[126.322083,33.467083],[126.325417,33.46875],[126.324303,33.469307],[126.321251,33.467918],[126.317085,33.468472],[126.316254,33.46986],[126.313469,33.46986],[126.30764,33.466526],[126.308197,33.465416],[126.308472,33.462082],[126.310143,33.462082],[126.30986,33.459583],[126.308197,33.458752],[126.307915,33.456528],[126.305695,33.453194],[126.306526,33.452084],[126.306252,33.450417],[126.304306,33.449585],[126.30014,33.449028],[126.299858,33.447361],[126.29847,33.447361],[126.296806,33.445972],[126.294029,33.445972],[126.292641,33.443748],[126.289024,33.442917],[126.288193,33.444584],[126.285416,33.444584],[126.283195,33.442917],[126.277641,33.441807],[126.275696,33.439861],[126.27375,33.435974],[126.272087,33.435974],[126.270691,33.438194],[126.269028,33.436806],[126.262642,33.436806],[126.261528,33.43486],[126.261803,33.432362],[126.262917,33.430138],[126.261528,33.428196],[126.262917,33.427917],[126.263474,33.423473],[126.262085,33.422085],[126.26236,33.419861],[126.261528,33.419304],[126.262085,33.417362],[126.260414,33.417362],[126.256248,33.41375],[126.253197,33.41375],[126.253197,33.41264],[126.25486,33.41153],[126.257637,33.41153],[126.257919,33.409306],[126.255417,33.407917],[126.255974,33.406528],[126.251808,33.405972],[126.24958,33.404026],[126.250137,33.402916],[126.24958,33.400696],[126.246529,33.400417],[126.242081,33.398193],[126.241531,33.395416],[126.240135,33.394306],[126.23597,33.393471],[126.235138,33.392082],[126.235695,33.390415],[126.234581,33.389305],[126.229584,33.389584],[126.228752,33.391529],[126.225975,33.391804],[126.225975,33.390141],[126.223747,33.390972],[126.221802,33.390972],[126.221802,33.388195],[126.218193,33.384583],[126.216248,33.384304],[126.214584,33.382362],[126.215691,33.37875],[126.21347,33.376804],[126.213196,33.375137],[126.209305,33.374863],[126.204865,33.371807],[126.205696,33.369583],[126.202919,33.367916],[126.201805,33.365417],[126.199028,33.365417],[126.197914,33.366249],[126.195419,33.365971],[126.195137,33.364861],[126.192085,33.364307],[126.188194,33.361526],[126.187363,33.359585],[126.185143,33.359585],[126.183472,33.360416],[126.182358,33.359306],[126.18042,33.359306],[126.179581,33.356529],[126.181526,33.355694],[126.180969,33.35236],[126.179306,33.35236],[126.179031,33.350971],[126.179863,33.347363],[126.177917,33.345974],[126.174583,33.345974],[126.174583,33.344582],[126.169861,33.344028],[126.169861,33.345695],[126.167641,33.345139],[126.168198,33.34375],[126.165695,33.342918],[126.165413,33.340416],[126.166527,33.339584],[126.165413,33.338196],[126.163475,33.338196],[126.161247,33.333752],[126.164864,33.331249],[126.164864,33.329029],[126.162086,33.329029],[126.162918,33.325974],[126.162361,33.32375],[126.16597,33.322639],[126.16597,33.320694],[126.167641,33.31625],[126.165695,33.313751],[126.165413,33.310974],[126.163475,33.307919],[126.163475,33.305973],[126.165413,33.302361],[126.167084,33.30014],[126.167084,33.297916],[126.163475,33.296806],[126.160973,33.294582],[126.160698,33.292641],[126.160973,33.287918],[126.162361,33.284584],[126.164581,33.283195],[126.167358,33.283195],[126.167923,33.282078],[126.168747,33.280693],[126.169029,33.276527],[126.168472,33.274582],[126.171249,33.273472],[126.173195,33.270973],[126.174583,33.270973],[126.175972,33.269585],[126.178749,33.267918],[126.178749,33.266529],[126.180969,33.263748],[126.18042,33.26125],[126.186531,33.256805],[126.18708,33.255695],[126.189583,33.255417],[126.191597,33.254028],[126.192917,33.254028],[126.194862,33.250694],[126.197914,33.248474],[126.200417,33.24736],[126.200691,33.24625],[126.207642,33.244026],[126.212914,33.241528],[126.213753,33.242638],[126.219864,33.242916],[126.221252,33.241249],[126.223198,33.240139],[126.226524,33.239861],[126.229309,33.240696],[126.228195,33.237915],[126.229309,33.235973],[126.232086,33.235138],[126.23542,33.235138],[126.234863,33.233471],[126.236252,33.229584],[126.240135,33.227917],[126.240692,33.225693],[126.239861,33.224583],[126.243469,33.220417],[126.246529,33.220139],[126.249031,33.21236],[126.24958,33.215416],[126.250969,33.215694],[126.25264,33.213749],[126.254585,33.210415],[126.261528,33.210693],[126.263474,33.21014],[126.263474,33.205696],[126.260971,33.200138],[126.264862,33.196251],[126.269028,33.195137],[126.27153,33.194862],[126.277359,33.199585],[126.280418,33.199585],[126.280418,33.200417],[126.285973,33.200138],[126.286804,33.196529],[126.287918,33.195137],[126.291527,33.194584],[126.293472,33.196251],[126.295135,33.195972],[126.295135,33.198193],[126.294304,33.201527],[126.293198,33.202915],[126.291252,33.204029],[126.292641,33.207085],[126.292915,33.210972],[126.295135,33.213749],[126.295135,33.216251],[126.295975,33.217918],[126.295135,33.219307],[126.294861,33.222363],[126.297081,33.223473],[126.299583,33.223751],[126.301529,33.227085],[126.307053,33.227085],[126.309029,33.226807],[126.309029,33.229584],[126.312363,33.232918],[126.315697,33.232639],[126.315697,33.235973],[126.317642,33.23764],[126.320137,33.23875],[126.325974,33.239029],[126.327637,33.240417],[126.334862,33.240417],[126.33625,33.23764],[126.33625,33.235973],[126.334305,33.235416],[126.334587,33.234306],[126.337364,33.234585],[126.339584,33.235416],[126.34375,33.235416],[126.345695,33.236252],[126.348747,33.234585],[126.352081,33.234585],[126.354027,33.235416],[126.355972,33.235416],[126.358749,33.236252],[126.359581,33.234859],[126.361809,33.236252],[126.363747,33.232361],[126.366249,33.230694],[126.37236,33.230415],[126.372643,33.232361],[126.375969,33.232361],[126.378471,33.230415],[126.378754,33.233471],[126.381248,33.234028],[126.384865,33.232082],[126.385696,33.234028],[126.387642,33.235695],[126.38958,33.235695],[126.392639,33.238194],[126.395416,33.239307],[126.396805,33.240696],[126.402916,33.241249],[126.402916,33.242916],[126.405693,33.242916],[126.407639,33.244583],[126.410698,33.244862],[126.412918,33.244305],[126.418198,33.242085],[126.424309,33.236252],[126.427086,33.234859],[126.431526,33.234859],[126.432915,33.232361],[126.434303,33.232361],[126.434586,33.234859],[126.435974,33.235973],[126.438194,33.235973],[126.439308,33.237362],[126.440971,33.237362],[126.441803,33.235973],[126.443192,33.235973],[126.444305,33.238194],[126.446526,33.238194],[126.451805,33.240417],[126.453476,33.239861],[126.45903,33.239307],[126.461807,33.236252],[126.462364,33.231529],[126.464859,33.229584],[126.467087,33.229584],[126.471252,33.22403],[126.474586,33.22514],[126.477081,33.22736],[126.480972,33.226807],[126.484863,33.228474],[126.487083,33.230415],[126.489029,33.230415],[126.49292,33.231529],[126.493195,33.230415],[126.495415,33.230415],[126.496246,33.232639],[126.498192,33.232639],[126.500137,33.231251],[126.500969,33.229862],[126.502914,33.230694],[126.509308,33.230694],[126.511803,33.232361],[126.51403,33.232918],[126.515694,33.234859],[126.515694,33.236805],[126.518753,33.237362],[126.520416,33.238472],[126.520416,33.240696],[126.525414,33.240417],[126.527359,33.23875],[126.535416,33.239582],[126.537636,33.240696],[126.540138,33.240696],[126.542915,33.23875],[126.545418,33.238472],[126.545692,33.23764],[126.548195,33.237083],[126.551247,33.240417],[126.552635,33.239029],[126.554306,33.238472],[126.558197,33.238194],[126.55986,33.239029],[126.561249,33.23764],[126.558197,33.236526],[126.561249,33.234585],[126.564583,33.234585],[126.564583,33.237362],[126.566803,33.237362],[126.565971,33.235138],[126.570137,33.236526],[126.570419,33.234859],[126.571808,33.234859],[126.569862,33.238472],[126.567917,33.239861],[126.567917,33.241806],[126.569862,33.243195],[126.572639,33.244026],[126.575974,33.243473],[126.578194,33.244026],[126.582085,33.242638],[126.582359,33.244026],[126.584587,33.243473],[126.589302,33.243473],[126.589584,33.241528],[126.591248,33.240696],[126.590698,33.239582],[126.594025,33.236526],[126.595695,33.236526],[126.597641,33.235416],[126.599861,33.235416],[126.60125,33.236526],[126.605972,33.23875],[126.608192,33.23875],[126.609024,33.239582],[126.612083,33.240696],[126.617638,33.240971],[126.619308,33.241806],[126.62014,33.243473],[126.619583,33.244583],[126.619858,33.24847],[126.622086,33.247917],[126.62236,33.250694],[126.627083,33.250694],[126.628754,33.25264],[126.628754,33.25375],[126.630692,33.254028],[126.632637,33.253193],[126.634865,33.256248],[126.63958,33.256248],[126.640694,33.257637],[126.63958,33.259304],[126.640137,33.261528],[126.641808,33.261528],[126.641808,33.264305],[126.642639,33.265415],[126.645416,33.266804],[126.649864,33.267639],[126.651802,33.266804],[126.652641,33.267918],[126.65625,33.267918],[126.659309,33.268749],[126.659584,33.27264],[126.660973,33.27264],[126.661247,33.270695],[126.663475,33.269585],[126.668472,33.269859],[126.670692,33.270416],[126.67347,33.268749],[126.675415,33.266804],[126.677635,33.266804],[126.679031,33.268749],[126.678749,33.270416],[126.680969,33.270416],[126.68264,33.268196],[126.689026,33.269028],[126.697639,33.270695],[126.700691,33.270695],[126.70153,33.272083],[126.70903,33.27375],[126.714302,33.27597],[126.717361,33.275417],[126.718475,33.27597],[126.722641,33.276249],[126.723198,33.278473],[126.724586,33.279026],[126.732086,33.278473],[126.733192,33.281528],[126.73542,33.281528],[126.739304,33.277916],[126.742638,33.277916],[126.744583,33.278751],[126.750137,33.283474],[126.75042,33.28653],[126.752914,33.287083],[126.755974,33.287083],[126.759026,33.290695],[126.76403,33.290974],[126.765694,33.296528],[126.767365,33.296528],[126.767082,33.298752],[126.769585,33.30014],[126.772087,33.30014],[126.774307,33.301807],[126.776527,33.306526],[126.77903,33.306526],[126.783752,33.305138],[126.786804,33.305416],[126.789024,33.303749],[126.791527,33.302639],[126.795135,33.304306],[126.797363,33.302639],[126.800697,33.302361],[126.805138,33.304585],[126.805969,33.302639],[126.808472,33.301529],[126.810974,33.302917],[126.811531,33.305416],[126.81514,33.306805],[126.819862,33.306805],[126.820969,33.305138],[126.825974,33.305695],[126.830139,33.305695],[126.831528,33.30764],[126.831528,33.30875],[126.833473,33.309307],[126.834862,33.311249],[126.837364,33.311249],[126.838753,33.312916],[126.842636,33.315418],[126.844582,33.319027],[126.848198,33.319584],[126.848473,33.323193],[126.849586,33.324306],[126.848473,33.325974],[126.845695,33.325417],[126.844025,33.326557],[126.839584,33.326527],[126.837914,33.325974],[126.836807,33.327362],[126.837639,33.329582],[126.842361,33.329582],[126.842918,33.331528],[126.845413,33.333473],[126.847084,33.333473],[126.847359,33.33514],[126.850975,33.335415],[126.85347,33.338196],[126.854858,33.33847],[126.856804,33.337639],[126.857361,33.341805],[126.859024,33.343193],[126.860138,33.346806],[126.862358,33.347084],[126.864304,33.348194],[126.865417,33.350693],[126.868195,33.35294],[126.869308,33.355694],[126.869308,33.357361],[126.868195,33.358196],[126.868195,33.360416],[126.869583,33.362083],[126.86792,33.36375],[126.869026,33.364582],[126.87236,33.365417],[126.87236,33.367085],[126.873749,33.368195],[126.874031,33.37236],[126.875694,33.374306],[126.879028,33.375973],[126.879028,33.37764],[126.88208,33.379581],[126.881805,33.381527],[126.884308,33.383751],[126.88903,33.384304],[126.892082,33.38736],[126.893471,33.387917],[126.899864,33.387917],[126.901527,33.389305],[126.904587,33.389862],[126.906807,33.391804],[126.907364,33.397915],[126.904861,33.400417],[126.904587,33.404026],[126.908752,33.405972],[126.909027,33.41153],[126.911247,33.411804],[126.911804,33.413471],[126.912086,33.419582],[126.91375,33.420418],[126.914864,33.422085],[126.914864,33.424026],[126.917358,33.427082],[126.91597,33.430695],[126.91597,33.433472],[126.918472,33.435139],[126.922638,33.435139],[126.924026,33.434029],[126.925415,33.430973],[126.92514,33.428749],[126.92292,33.428471],[126.92292,33.426529],[126.924858,33.425972],[126.926529,33.423752],[126.929306,33.422359],[126.931526,33.422916],[126.932915,33.42625],[126.935417,33.425972],[126.935143,33.427361],[126.936806,33.429585],[126.936531,33.430695],[126.93042,33.43375],[126.929031,33.43486],[126.924026,33.43486],[126.923752,33.437637],[126.921249,33.439861],[126.922081,33.44125],[126.920975,33.443474],[126.921249,33.445415],[126.922363,33.445694],[126.922363,33.449028],[126.924583,33.451527],[126.926804,33.454861],[126.929306,33.457359],[126.930969,33.459862],[126.93486,33.460415],[126.938194,33.457085],[126.940697,33.455418],[126.941528,33.454029],[126.942917,33.454029],[126.944862,33.455696],[126.946251,33.455418],[126.946526,33.459026],[126.943748,33.461529],[126.94014,33.461807],[126.939857,33.462639],[126.936531,33.466251],[126.937363,33.468472],[126.935417,33.470417],[126.935974,33.472084],[126.93486,33.473751],[126.927917,33.47403],[126.928474,33.470695],[126.925972,33.468193],[126.928749,33.468193],[126.928749,33.466526],[126.931808,33.465694],[126.930969,33.462917],[126.928474,33.462082],[126.928192,33.46014],[126.928749,33.457916],[126.927086,33.457359],[126.925697,33.455696],[126.924026,33.455696],[126.922638,33.454304],[126.922081,33.451805],[126.918198,33.453194],[126.920135,33.454029],[126.920418,33.456528],[126.922081,33.455971],[126.922638,33.459026],[126.921524,33.460972],[126.921249,33.464027],[126.92292,33.46764],[126.92514,33.468193],[126.925972,33.472916],[126.92292,33.470974],[126.918747,33.471249],[126.91597,33.472916],[126.912086,33.472916],[126.910973,33.47625],[126.909584,33.479027],[126.904587,33.478748],[126.901802,33.482361],[126.901802,33.483253],[126.901802,33.485695],[126.903748,33.489029],[126.907639,33.487362],[126.910973,33.48875],[126.91153,33.490696],[126.909584,33.494583],[126.909584,33.495972],[126.91153,33.495972],[126.913475,33.496807],[126.913475,33.498474],[126.911804,33.499863],[126.914024,33.501526],[126.912918,33.507915],[126.910416,33.509861],[126.907364,33.510971],[126.904861,33.510971],[126.899582,33.509861],[126.89875,33.512638],[126.900139,33.513748],[126.902641,33.514305],[126.900414,33.517918],[126.902916,33.519306],[126.905136,33.519306],[126.90403,33.521526],[126.904305,33.52486],[126.902916,33.52597],[126.900139,33.525417],[126.901802,33.52375],[126.90097,33.52264],[126.897919,33.523472],[126.895691,33.525139],[126.892914,33.528194],[126.882919,33.528473],[126.88208,33.529861],[126.878197,33.529583],[126.877357,33.530418],[126.869583,33.530693],[126.865974,33.529305],[126.864586,33.526806],[126.86264,33.526249],[126.861526,33.525139],[126.859024,33.525139],[126.855415,33.529583],[126.851524,33.530972],[126.85125,33.533474],[126.840416,33.533474],[126.840416,33.536804],[126.838196,33.537083],[126.83625,33.539307],[126.834587,33.540417],[126.832642,33.53986],[126.830414,33.543751],[126.827637,33.547638],[126.829865,33.55125],[126.825974,33.554585],[126.827919,33.559029],[126.82653,33.560139],[126.821526,33.560417],[126.820969,33.561527],[126.816803,33.560974],[126.814857,33.561806],[126.81292,33.561527],[126.811806,33.55986],[126.809586,33.558472],[126.805695,33.559307],[126.805695,33.557083],[126.804581,33.556805],[126.802635,33.558472],[126.800697,33.558193],[126.80014,33.555973],[126.797363,33.555695],[126.795418,33.556526],[126.795692,33.558193],[126.794029,33.560417],[126.789307,33.561249],[126.785698,33.562637],[126.783752,33.562916],[126.78347,33.565693],[126.781525,33.56403],[126.777084,33.564583],[126.777084,33.562916],[126.775414,33.562916],[126.775414,33.56514],[126.772636,33.56625],[126.770416,33.565418],[126.768471,33.565418],[126.766525,33.56625],[126.762085,33.565693],[126.761253,33.561527],[126.762085,33.55986],[126.760696,33.557919],[126.755142,33.557919],[126.748749,33.558472],[126.745697,33.558193],[126.744858,33.557362],[126.742638,33.557083],[126.739304,33.554585],[126.736809,33.555973],[126.737915,33.557919],[126.736526,33.559029],[126.732361,33.559582],[126.730415,33.560974],[126.725975,33.560696],[126.72625,33.559307],[126.724861,33.558472],[126.722046,33.557919],[126.718475,33.557919],[126.717918,33.555695],[126.716805,33.554585],[126.714302,33.555138],[126.71125,33.554306],[126.706528,33.553749],[126.700691,33.553749],[126.696251,33.551807],[126.69236,33.551529],[126.689308,33.550415],[126.689583,33.548752],[126.687637,33.548752],[126.685974,33.549583],[126.68264,33.549583],[126.681252,33.552639],[126.676804,33.552639],[126.67514,33.550694],[126.674026,33.550415],[126.674309,33.545139],[126.670692,33.545139],[126.666527,33.542641],[126.665138,33.542641],[126.662636,33.544582],[126.662636,33.546249],[126.659859,33.546806],[126.65625,33.548195],[126.65625,33.549862],[126.652641,33.552361],[126.65097,33.548473],[126.647919,33.549026],[126.649864,33.553471],[126.647919,33.554585],[126.645416,33.555138],[126.643196,33.554028],[126.641525,33.551807],[126.638748,33.550415],[126.638191,33.549583],[126.639305,33.545971],[126.634583,33.545418],[126.634308,33.541805],[126.636253,33.540974],[126.636253,33.539307],[126.634308,33.538471],[126.635414,33.53653],[126.631805,33.536251],[126.631248,33.537918],[126.628754,33.537918],[126.627357,33.539028],[126.62458,33.538193],[126.622086,33.538471],[126.619308,33.538193],[126.612358,33.538193],[126.611252,33.536251],[126.607635,33.536251],[126.603195,33.535694],[126.601807,33.536804],[126.599586,33.536804],[126.594864,33.53764],[126.594307,33.535973],[126.590141,33.53236],[126.588753,33.527916],[126.585976,33.525696],[126.582085,33.525696],[126.579025,33.525139],[126.578476,33.526527],[126.576805,33.526527],[126.576805,33.528194],[126.574585,33.527916],[126.573196,33.525696],[126.569862,33.526249],[126.569031,33.528751],[126.566803,33.526527],[126.566803,33.524582],[126.564857,33.525417],[126.564026,33.527084],[126.561249,33.527363],[126.559029,33.52486],[126.558746,33.523472],[126.555969,33.521805],[126.550697,33.522083],[126.548752,33.520973],[126.546806,33.522362],[126.544861,33.522362],[126.544586,33.52486],[126.542358,33.527916],[126.542358,33.524307],[126.540413,33.52486],[126.539307,33.522915],[126.537086,33.523193],[126.53653,33.520973],[126.532364,33.520138],[126.531525,33.517918],[126.52903,33.517918],[126.529861,33.519585],[126.531525,33.519859],[126.532639,33.522083],[126.535416,33.524029],[126.535416,33.525139]]],[[[126.269302,33.124863],[126.267082,33.124306],[126.264305,33.118473],[126.264305,33.115971],[126.266525,33.11264],[126.269302,33.112083],[126.270416,33.115417],[126.269859,33.120419],[126.269859,33.124584],[126.269302,33.124863]]],[[[126.27375,33.175694],[126.272087,33.174305],[126.268196,33.173473],[126.268196,33.171806],[126.26403,33.170418],[126.264305,33.169304],[126.268471,33.166805],[126.270142,33.16375],[126.274582,33.16375],[126.276527,33.165138],[126.277916,33.167362],[126.279861,33.167362],[126.27903,33.170139],[126.276253,33.172638],[126.27375,33.175694]]],[[[126.314857,33.21125],[126.313194,33.21014],[126.313469,33.208752],[126.315697,33.209026],[126.316254,33.210415],[126.314857,33.21125]]],[[[126.516808,33.220417],[126.515137,33.220139],[126.51236,33.217361],[126.516251,33.215137],[126.518471,33.215416],[126.519859,33.217083],[126.519585,33.21875],[126.516808,33.220417]]],[[[126.656525,33.227085],[126.653473,33.226528],[126.652359,33.225693],[126.652359,33.223194],[126.654305,33.222637],[126.657913,33.223194],[126.65847,33.225693],[126.656525,33.227085]]],[[[126.56514,33.228195],[126.563469,33.227917],[126.562637,33.226528],[126.563469,33.224861],[126.568192,33.224583],[126.568748,33.226528],[126.567642,33.227917],[126.56514,33.228195]]],[[[126.499031,33.231529],[126.497643,33.231251],[126.49736,33.229584],[126.499863,33.229305],[126.499031,33.231529]]],[[[126.599304,33.233471],[126.596802,33.231804],[126.595139,33.229027],[126.598473,33.22736],[126.602364,33.228195],[126.60347,33.230415],[126.599304,33.232639],[126.599304,33.233471]]],[[[126.955696,33.52597],[126.951248,33.52597],[126.94986,33.524029],[126.947914,33.523472],[126.947083,33.519028],[126.948471,33.518749],[126.946808,33.515141],[126.944031,33.513748],[126.942085,33.511528],[126.942917,33.508194],[126.939583,33.506527],[126.94236,33.501526],[126.942917,33.498474],[126.944031,33.49736],[126.942917,33.494583],[126.944305,33.493195],[126.946251,33.493473],[126.947083,33.492363],[126.949028,33.492363],[126.955139,33.490971],[126.959587,33.491528],[126.960136,33.490139],[126.962082,33.490139],[126.962639,33.489029],[126.966248,33.48875],[126.968475,33.491528],[126.967918,33.495972],[126.969307,33.49625],[126.972084,33.498749],[126.97097,33.500694],[126.97097,33.502083],[126.969307,33.502918],[126.968475,33.504307],[126.968475,33.507084],[126.967918,33.509861],[126.96653,33.510418],[126.966248,33.512638],[126.969582,33.512638],[126.970413,33.511528],[126.972916,33.513474],[126.973473,33.514584],[126.97097,33.515141],[126.968193,33.516529],[126.96653,33.516529],[126.964859,33.514584],[126.958748,33.513474],[126.959587,33.517082],[126.962364,33.517361],[126.961525,33.519028],[126.95903,33.521252],[126.960136,33.523472],[126.956528,33.524029],[126.955696,33.52597]]]]},"properties":{"province":"제주"}}
]}