{"type":"Feature","properties":{"name":"전국 권역 경계"},"geometry":{"type":"MultiLineString","coordinates":[[[126.81529998779297,37.51999664306646],[126.80548095703136,37.51672363281256]],[[126.80548095703136,37.51672363281256],[126.79931640625,37.51568603515619]],[[126.79931640625,37.51568603515619],[126.79379272460938,37.510772705078125]],[[126.79379272460938,37.510772705078125],[126.78750610351562,37.51339721679682]],[[126.78750610351562,37.51339721679682],[126.77789306640625,37.51568603515619]],[[126.77789306640625,37.51568603515619],[126.76985931396496,37.51542282104492]],[[126.76985931396496,37.51542282104492],[126.77854919433594,37.53114318847656]],[[126.77854919433594,37.53114318847656],[126.78369140625,37.53887939453131]],[[126.78369140625,37.53887939453131],[126.7884979248048,37.546493530273494]],[[126.7884979248048,37.546493530273494],[126.79168701171875,37.55389404296875]],[[126.79168701171875,37.55389404296875],[126.79327392578136,37.560302734375114]],[[126.79327392578136,37.560302734375114],[126.799072265625,37.562927246093864]],[[126.799072265625,37.562927246093864],[126.80627441406261,37.56652832031256]],[[126.80627441406261,37.56652832031256],[126.81240844726562,37.57330322265625]],[[126.81240844726562,37.57330322265625],[126.81829833984386,37.57690429687494]],[[126.81829833984386,37.57690429687494],[126.823486328125,37.580688476562614]],[[126.823486328125,37.580688476562614],[126.82867431640625,37.57690429687494]],[[126.82867431640625,37.57690429687494],[126.83489990234386,37.57507324218756]],[[126.83489990234386,37.57507324218756],[126.84289550781261,37.57128906250006]],[[126.84289550781261,37.57128906250006],[126.85107421875011,37.568481445312614]],[[126.91203308105469,37.43706512451183],[126.90575408935547,37.43700790405268]],[[126.90575408935547,37.43700790405268],[126.89618682861328,37.438327789306754]],[[126.89618682861328,37.438327789306754],[126.88923645019543,37.44088363647461]],[[126.88923645019543,37.44088363647461],[126.88240051269531,37.446495056152344]],[[126.88240051269531,37.446495056152344],[126.87643432617199,37.45090484619146]],[[126.87643432617199,37.45090484619146],[126.86969757080078,37.45543289184576]],[[126.86969757080078,37.45543289184576],[126.85964202880871,37.45767974853527]],[[126.85964202880871,37.45767974853527],[126.85146331787121,37.458263397216854]],[[126.85146331787121,37.458263397216854],[126.84771728515625,37.4625244140625]],[[126.84771728515625,37.4625244140625],[126.83914947509766,37.465576171875]],[[126.83914947509766,37.465576171875],[126.83111572265625,37.46728515625]],[[126.83111572265625,37.46728515625],[126.821044921875,37.46989059448248]],[[126.821044921875,37.46989059448248],[126.82092285156261,37.47631835937506]],[[126.82092285156261,37.47631835937506],[126.8179931640625,37.482330322265625]],[[126.8179931640625,37.482330322265625],[126.81889343261719,37.49234008789068]],[[126.81889343261719,37.49234008789068],[126.82022094726562,37.49859619140631]],[[126.97087860107433,37.44564819335949],[126.96645355224621,37.4409751892091]],[[126.96645355224621,37.4409751892091],[126.95811462402355,37.43883895874029]],[[126.95811462402355,37.43883895874029],[126.94807434082031,37.436546325683594]],[[126.94807434082031,37.436546325683594],[126.93968963623047,37.43491363525396]],[[126.93968963623047,37.43491363525396],[126.92731475830078,37.4348983764649]],[[126.92731475830078,37.4348983764649],[126.9188461303711,37.435295104980526]],[[126.9188461303711,37.435295104980526],[126.91203308105469,37.43706512451183]],[[127.12341308593773,37.54969787597656],[127.12287902832043,37.543895721435604]],[[127.12287902832043,37.543895721435604],[127.12569427490257,37.536865234375]],[[127.12569427490257,37.536865234375],[127.13057708740234,37.53364944458019]],[[127.11857604980469,37.596767425537166],[127.11641693115246,37.58682632446295]],[[127.11641693115246,37.58682632446295],[127.11885070800793,37.57689285278326]],[[127.11885070800793,37.57689285278326],[127.1207046508789,37.56927871704107]],[[127.1207046508789,37.56927871704107],[127.12270355224621,37.56305694580084]],[[127.12270355224621,37.56305694580084],[127.1225051879884,37.55605316162115]],[[127.1225051879884,37.55605316162115],[127.12341308593773,37.54969787597656]],[[126.85107421875011,37.568481445312614],[126.85650634765625,37.57012939453131]],[[126.85650634765625,37.57012939453131],[126.86309814453136,37.56951904296875]],[[126.86309814453136,37.56951904296875],[126.87211608886719,37.57256317138672]],[[126.87211608886719,37.57256317138672],[126.87711334228516,37.573162078857536]],[[127.10036468505871,37.650184631347656],[127.103515625,37.6395263671875]],[[127.103515625,37.6395263671875],[127.11297607421886,37.63278198242199]],[[127.11297607421886,37.63278198242199],[127.115478515625,37.626281738281364]],[[127.115478515625,37.626281738281364],[127.11791992187511,37.62109375000006]],[[127.11791992187511,37.62109375000006],[127.11932373046875,37.61279296875]],[[127.11932373046875,37.61279296875],[127.11857604980469,37.596767425537166]],[[127.06170654296875,37.65409469604492],[127.0697021484375,37.6602783203125]],[[127.0697021484375,37.6602783203125],[127.08029174804688,37.65911865234369]],[[127.08029174804688,37.65911865234369],[127.0918960571289,37.65525436401367]],[[127.0918960571289,37.65525436401367],[127.10036468505871,37.650184631347656]],[[127.09417724609375,37.42881393432617],[127.08807373046875,37.42431640624994]],[[127.08807373046875,37.42431640624994],[127.0797119140625,37.41772460937506]],[[127.0797119140625,37.41772460937506],[127.07391357421875,37.415527343750114]],[[127.07391357421875,37.415527343750114],[127.06072998046886,37.41528320312506]],[[127.06072998046886,37.41528320312506],[127.05249023437511,37.416870117187614]],[[127.05249023437511,37.416870117187614],[127.04370117187511,37.42211914062506]],[[127.04370117187511,37.42211914062506],[127.0386962890625,37.42950439453125]],[[127.0386962890625,37.42950439453125],[127.03570556640636,37.43511962890631]],[[127.03570556640636,37.43511962890631],[127.03167724609386,37.4462890625]],[[127.03167724609386,37.4462890625],[127.02078247070312,37.44851684570324]],[[127.02078247070312,37.44851684570324],[127.01129150390636,37.444885253906364]],[[127.01129150390636,37.444885253906364],[127.00531005859375,37.44427490234381]],[[127.00531005859375,37.44427490234381],[126.99908447265636,37.44427490234381]],[[126.99908447265636,37.44427490234381],[126.99249267578125,37.444885253906364]],[[126.99249267578125,37.444885253906364],[126.98571777343761,37.4462890625]],[[126.98571777343761,37.4462890625],[126.97967529296875,37.4462890625]],[[126.97967529296875,37.4462890625],[126.97087860107433,37.44564819335949]],[[127.14371490478516,37.483478546142635],[127.14947509765625,37.47991943359381]],[[127.14947509765625,37.47991943359381],[127.1533203125,37.47192382812506]],[[127.1533203125,37.47192382812506],[127.1540298461914,37.46308898925781]],[[127.1540298461914,37.46308898925781],[127.15613555908203,37.45626449584955]],[[127.15613555908203,37.45626449584955],[127.15127563476574,37.44921875000006]],[[127.15127563476574,37.44921875000006],[127.14649200439476,37.443012237548885]],[[127.14649200439476,37.443012237548885],[127.13748168945312,37.43441009521496]],[[127.13748168945312,37.43441009521496],[127.12974548339855,37.43190383911133]],[[126.82022094726562,37.49859619140631],[126.82373046875,37.507080078125114]],[[126.82373046875,37.507080078125114],[126.81912231445312,37.51388549804693]],[[126.81912231445312,37.51388549804693],[126.81529998779297,37.51999664306646]],[[127.01010894775413,37.65684127807623],[127.01611328125,37.663085937500114]],[[127.01611328125,37.663085937500114],[127.0220947265625,37.66491699218756]],[[127.0220947265625,37.66491699218756],[127.03607177734386,37.662719726562614]],[[127.03607177734386,37.662719726562614],[127.04708862304688,37.661193847656364]],[[127.04708862304688,37.661193847656364],[127.05597686767578,37.659492492675724]],[[127.05597686767578,37.659492492675724],[127.06170654296875,37.65409469604492]],[[126.87711334228516,37.573162078857536],[126.88751220703136,37.58752441406256]],[[126.88751220703136,37.58752441406256],[126.89208984375011,37.596496582031364]],[[126.89208984375011,37.596496582031364],[126.89617919921875,37.60787963867193]],[[126.89617919921875,37.60787963867193],[126.90008544921886,37.61608886718756]],[[126.90008544921886,37.61608886718756],[126.90393066406261,37.622070312500114]],[[126.90393066406261,37.622070312500114],[126.90972900390625,37.625488281250114]],[[126.90972900390625,37.625488281250114],[126.917724609375,37.62750244140625]],[[126.917724609375,37.62750244140625],[126.92327880859375,37.62927246093756]],[[126.92327880859375,37.62927246093756],[126.93109130859375,37.63128662109375]],[[126.93109130859375,37.63128662109375],[126.938720703125,37.633117675781364]],[[126.938720703125,37.633117675781364],[126.94512939453136,37.63330078125006]],[[126.94512939453136,37.63330078125006],[126.95147705078125,37.63330078125006]],[[126.95147705078125,37.63330078125006],[126.96590423583996,37.632122039794865]],[[127.16852569580078,37.52482986450201],[127.17089080810547,37.51730346679693]],[[127.17089080810547,37.51730346679693],[127.1642074584961,37.509700775146484]],[[127.1642074584961,37.509700775146484],[127.15834045410168,37.50506973266613]],[[127.15834045410168,37.50506973266613],[127.15151977539074,37.50005722045904]],[[127.15151977539074,37.50005722045904],[127.14503479003918,37.4946174621582]],[[127.14503479003918,37.4946174621582],[127.14624786376953,37.48863601684582]],[[127.14624786376953,37.48863601684582],[127.14371490478516,37.483478546142635]],[[127.13057708740234,37.53364944458019],[127.13788604736328,37.536464691162166]],[[127.13788604736328,37.536464691162166],[127.14945983886719,37.53629684448248]],[[127.14945983886719,37.53629684448248],[127.1571044921875,37.535018920898494]],[[127.1571044921875,37.535018920898494],[127.16244506835938,37.53081130981457]],[[127.16244506835938,37.53081130981457],[127.16852569580078,37.52482986450201]],[[126.99591064453125,37.65228271484375],[127.00268554687511,37.654479980468864]],[[127.00268554687511,37.654479980468864],[127.01010894775413,37.65684127807623]],[[126.96590423583996,37.632122039794865],[126.97827148437511,37.638671875000114]],[[126.97827148437511,37.638671875000114],[126.98575592041027,37.641212463378906]],[[126.98575592041027,37.641212463378906],[126.9923095703125,37.64709472656244]],[[126.9923095703125,37.64709472656244],[126.99591064453125,37.65228271484375]],[[127.12974548339855,37.43190383911133],[127.12249755859386,37.428283691406364]],[[127.12249755859386,37.428283691406364],[127.11688232421875,37.42749023437506]],[[127.11688232421875,37.42749023437506],[127.11090087890625,37.428100585937614]],[[127.11090087890625,37.428100585937614],[127.10308837890625,37.42852783203125]],[[127.10308837890625,37.42852783203125],[127.09417724609375,37.42881393432617]],[[127.48388671875,36.99810791015631],[127.47296142578125,36.992889404296875]],[[127.47296142578125,36.992889404296875],[127.45071411132835,36.971496582031364]],[[127.45071411132835,36.971496582031364],[127.44921875000011,36.964508056640625]],[[127.44921875000011,36.964508056640625],[127.44348144531261,36.962707519531364]],[[127.44348144531261,36.962707519531364],[127.43415832519543,36.960693359375]],[[127.43415832519543,36.960693359375],[127.42849731445312,36.960693359375]],[[127.42849731445312,36.960693359375],[127.42102050781261,36.95782470703125]],[[127.42102050781261,36.95782470703125],[127.41299438476574,36.95449829101574]],[[127.41299438476574,36.95449829101574],[127.40219116210938,36.948883056640625]],[[127.40219116210938,36.948883056640625],[127.39971923828125,36.941894531250114]],[[127.39971923828125,36.941894531250114],[127.39471435546875,36.93270874023443]],[[127.39471435546875,36.93270874023443],[127.39151000976562,36.92498779296875]],[[127.39151000976562,36.92498779296875],[127.38668823242199,36.91751098632824]],[[127.38668823242199,36.91751098632824],[127.38189697265636,36.91210937500006]],[[127.38189697265636,36.91210937500006],[127.37768554687511,36.908325195312614]],[[127.37768554687511,36.908325195312614],[127.3717041015625,36.90548706054699]],[[127.3717041015625,36.90548706054699],[127.36370849609375,36.90380859374994]],[[127.36370849609375,36.90380859374994],[127.35430908203125,36.90252685546875]],[[127.35430908203125,36.90252685546875],[127.348388671875,36.900695800781364]],[[127.348388671875,36.900695800781364],[127.33831787109375,36.89770507812494]],[[127.33831787109375,36.89770507812494],[127.32891845703125,36.89630126953131]],[[127.32891845703125,36.89630126953131],[127.32330322265648,36.8948974609375]],[[127.32330322265648,36.8948974609375],[127.3134765625,36.89227294921881]],[[127.3134765625,36.89227294921881],[127.30767822265636,36.89147949218756]],[[127.30767822265636,36.89147949218756],[127.29818725585949,36.88882446289068]],[[127.29818725585949,36.88882446289068],[127.28729248046886,36.88250732421875]],[[127.28729248046886,36.88250732421875],[127.28079223632824,36.878601074218864]],[[127.28079223632824,36.878601074218864],[127.27691650390625,36.86788940429699]],[[127.27691650390625,36.86788940429699],[127.27249145507812,36.859619140625]],[[127.27249145507812,36.859619140625],[127.268310546875,36.8529052734375]],[[127.268310546875,36.8529052734375],[127.26007080078125,36.860473632812614]],[[127.26007080078125,36.860473632812614],[127.25531005859375,36.864501953125114]],[[127.25531005859375,36.864501953125114],[127.24932861328136,36.86767578125006]],[[127.24932861328136,36.86767578125006],[127.24148559570324,36.8739013671875]],[[127.24148559570324,36.8739013671875],[127.23541259765636,36.8759765625]],[[127.23541259765636,36.8759765625],[127.22851562500011,36.876281738281364]],[[127.22851562500011,36.876281738281364],[127.21951293945312,36.87899780273449]],[[127.21951293945312,36.87899780273449],[127.21179199218761,36.88421630859375]],[[127.21179199218761,36.88421630859375],[127.20531463623047,36.89249038696289]],[[127.20531463623047,36.89249038696289],[127.194091796875,36.895385742187614]],[[127.194091796875,36.895385742187614],[127.18667602539062,36.89819335937506]],[[127.18667602539062,36.89819335937506],[127.1798095703125,36.90380859374994]],[[127.1798095703125,36.90380859374994],[127.17150878906261,36.908203125]],[[127.17150878906261,36.908203125],[127.16351318359386,36.90969848632824]],[[127.16351318359386,36.90969848632824],[127.1559829711914,36.913982391357536]],[[127.1559829711914,36.913982391357536],[127.1483154296875,36.91687011718756]],[[127.1483154296875,36.91687011718756],[127.13851928710949,36.92059326171869]],[[127.13851928710949,36.92059326171869],[127.1298828125,36.92211914062494]],[[127.1298828125,36.92211914062494],[127.11997222900413,36.925109863281364]],[[127.47210693359386,38.00667190551769],[127.47528076171875,37.99409484863281]],[[127.47528076171875,37.99409484863281],[127.47967529296875,37.98272705078131]],[[127.47967529296875,37.98272705078131],[127.48272705078125,37.97448730468756]],[[127.48272705078125,37.97448730468756],[127.48748779296875,37.963684082031364]],[[127.48748779296875,37.963684082031364],[127.49070739746094,37.956054687500114]],[[127.49070739746094,37.956054687500114],[127.49543762207031,37.95042800903332]],[[127.49543762207031,37.95042800903332],[127.50390625,37.946899414062614]],[[127.50390625,37.946899414062614],[127.51531982421875,37.945922851562614]],[[127.51531982421875,37.945922851562614],[127.54351806640625,37.9447021484375]],[[127.54351806640625,37.9447021484375],[127.5561752319336,37.945110321045036]],[[127.5561752319336,37.945110321045036],[127.56231689453136,37.93689727783209]],[[127.56231689453136,37.93689727783209],[127.5653076171875,37.92633056640619]],[[127.5653076171875,37.92633056640619],[127.56764984130871,37.918472290039176]],[[127.56764984130871,37.918472290039176],[127.568115234375,37.904449462890625]],[[127.568115234375,37.904449462890625],[127.57466125488281,37.90045166015625]],[[127.57466125488281,37.90045166015625],[127.58447265625011,37.90087890625006]],[[127.58447265625011,37.90087890625006],[127.60484313964855,37.9044189453125]],[[127.60484313964855,37.9044189453125],[127.61351013183594,37.90151977539074]],[[127.61351013183594,37.90151977539074],[127.61531066894554,37.89324569702143]],[[127.61531066894554,37.89324569702143],[127.61543273925781,37.88330841064459]],[[127.61543273925781,37.88330841064459],[127.61524963378906,37.876541137695426]],[[127.61524963378906,37.876541137695426],[127.61505126953125,37.86911010742182]],[[127.61505126953125,37.86911010742182],[127.61485290527344,37.86152267456066]],[[127.61485290527344,37.86152267456066],[127.61410522460938,37.84807205200195]],[[127.61410522460938,37.84807205200195],[127.61230468750011,37.83850097656256]],[[127.61230468750011,37.83850097656256],[127.60826873779308,37.83172607421869]],[[127.60826873779308,37.83172607421869],[127.60089111328136,37.82452392578125]],[[127.60089111328136,37.82452392578125],[127.58270263671898,37.8084716796875]],[[127.58270263671898,37.8084716796875],[127.57611083984375,37.803283691406364]],[[127.57611083984375,37.803283691406364],[127.57067871093773,37.80029296875]],[[127.57067871093773,37.80029296875],[127.56347656250011,37.797912597656364]],[[127.56347656250011,37.797912597656364],[127.55292510986328,37.79409027099615]],[[127.55292510986328,37.79409027099615],[127.5452880859375,37.79248046875]],[[127.5452880859375,37.79248046875],[127.53964233398449,37.788040161132926]],[[127.53964233398449,37.788040161132926],[127.53808593750011,37.78088378906256]],[[127.53808593750011,37.78088378906256],[127.53851318359386,37.76788330078125]],[[127.53851318359386,37.76788330078125],[127.53790283203136,37.760040283203125]],[[127.53790283203136,37.760040283203125],[127.53430175781261,37.74847412109381]],[[127.53430175781261,37.74847412109381],[127.53504943847668,37.741455078125114]],[[127.53504943847668,37.741455078125114],[127.54304504394543,37.71365356445324]],[[127.54304504394543,37.71365356445324],[127.54183959960938,37.704467773437614]],[[127.54183959960938,37.704467773437614],[127.53668212890625,37.696289062500114]],[[127.53668212890625,37.696289062500114],[127.52990722656261,37.68890380859375]],[[127.52990722656261,37.68890380859375],[127.52227783203136,37.68188476562506]],[[127.52227783203136,37.68188476562506],[127.51908111572266,37.674034118652344]],[[127.51908111572266,37.674034118652344],[127.5253143310548,37.66744995117199]],[[127.5253143310548,37.66744995117199],[127.54071044921875,37.66888427734375]],[[127.54071044921875,37.66888427734375],[127.54646301269554,37.66790771484375]],[[127.54646301269554,37.66790771484375],[127.5496826171875,37.66247558593756]],[[127.5496826171875,37.66247558593756],[127.5498962402346,37.65623474121105]],[[127.5498962402346,37.65623474121105],[127.55047607421886,37.63348388671881]],[[127.55047607421886,37.63348388671881],[127.55084228515648,37.62371826171881]],[[127.55084228515648,37.62371826171881],[127.54632568359386,37.61468505859375]],[[127.54632568359386,37.61468505859375],[127.54229736328136,37.60992431640625]],[[127.54229736328136,37.60992431640625],[127.54508972167969,37.60284423828119]],[[127.54508972167969,37.60284423828119],[127.55400085449219,37.59687423706055]],[[127.55400085449219,37.59687423706055],[127.55987548828136,37.593872070312614]],[[127.55987548828136,37.593872070312614],[127.56651306152355,37.591903686523494]],[[127.56651306152355,37.591903686523494],[127.57563018798828,37.58853530883795]],[[127.63808441162121,37.0992050170899],[127.63711547851574,37.09091186523432]],[[127.63711547851574,37.09091186523432],[127.63510131835938,37.082275390625114]],[[127.63510131835938,37.082275390625114],[127.634521484375,37.069519042968864]],[[127.634521484375,37.069519042968864],[127.63348388671886,37.06390380859381]],[[127.63348388671886,37.06390380859381],[127.63067626953125,37.057312011718864]],[[127.63067626953125,37.057312011718864],[127.62829589843761,37.04730224609375]],[[127.62829589843761,37.04730224609375],[127.62420654296875,37.03878784179699]],[[127.62420654296875,37.03878784179699],[127.62048339843761,37.03149414062506]],[[127.62048339843761,37.03149414062506],[127.61602783203125,37.0234375]],[[127.61602783203125,37.0234375],[127.60821533203125,37.01672363281244]],[[127.60821533203125,37.01672363281244],[127.59469604492188,37.01480102539074]],[[127.59469604492188,37.01480102539074],[127.58358764648438,37.01202392578131]],[[127.58358764648438,37.01202392578131],[127.57031250000011,37.012512207031364]],[[127.57031250000011,37.012512207031364],[127.5662841796875,37.008300781250114]],[[127.5662841796875,37.008300781250114],[127.56549072265625,37.00250244140631]],[[127.56549072265625,37.00250244140631],[127.56455993652344,36.989501953125]],[[127.56455993652344,36.989501953125],[127.55697631835949,36.985595703125114]],[[127.55697631835949,36.985595703125114],[127.535888671875,36.98608398437506]],[[127.535888671875,36.98608398437506],[127.49951171875,36.990722656250114]],[[127.49951171875,36.990722656250114],[127.49151611328125,36.9932861328125]],[[127.49151611328125,36.9932861328125],[127.48388671875,36.99810791015631]],[[127.17698669433594,38.072570800781364],[127.18707275390625,38.074096679687614]],[[127.18707275390625,38.074096679687614],[127.19732666015625,38.07672119140631]],[[127.19732666015625,38.07672119140631],[127.2078857421875,38.07989501953125]],[[127.2078857421875,38.07989501953125],[127.21490478515625,38.082519531250114]],[[127.21490478515625,38.082519531250114],[127.22210693359375,38.08569335937506]],[[127.22210693359375,38.08569335937506],[127.22888183593773,38.08929443359381]],[[127.22888183593773,38.08929443359381],[127.25689697265625,38.107482910156364]],[[127.25689697265625,38.107482910156364],[127.26647949218761,38.11468505859381]],[[127.26647949218761,38.11468505859381],[127.28131103515625,38.12768554687506]],[[127.28131103515625,38.12768554687506],[127.28845214843761,38.13371276855469]],[[127.28845214843761,38.13371276855469],[127.29608154296886,38.13470458984381]],[[127.29608154296886,38.13470458984381],[127.30548095703125,38.131896972656364]],[[127.30548095703125,38.131896972656364],[127.31127929687523,38.1280975341798]],[[127.31127929687523,38.1280975341798],[127.3072967529298,38.119689941406364]],[[127.3072967529298,38.119689941406364],[127.29449462890648,38.10528564453125]],[[127.29449462890648,38.10528564453125],[127.2855224609375,38.09411621093756]],[[127.2855224609375,38.09411621093756],[127.27471923828136,38.08148193359381]],[[127.27471923828136,38.08148193359381],[127.27088928222668,38.07484436035162]],[[127.27088928222668,38.07484436035162],[127.27171325683594,38.066848754882926]],[[127.27171325683594,38.066848754882926],[127.27664184570324,38.058486938476676]],[[127.27664184570324,38.058486938476676],[127.28308105468761,38.0552978515625]],[[127.28308105468761,38.0552978515625],[127.29071044921886,38.05572509765631]],[[127.29071044921886,38.05572509765631],[127.2965087890625,38.05767822265631]],[[127.2965087890625,38.05767822265631],[127.30212402343773,38.06091308593756]],[[127.30212402343773,38.06091308593756],[127.313720703125,38.068115234375]],[[127.313720703125,38.068115234375],[127.32122039794933,38.07151412963873]],[[127.32122039794933,38.07151412963873],[127.32788085937523,38.06829833984375]],[[127.32788085937523,38.06829833984375],[127.33470153808594,38.06568908691412]],[[127.33470153808594,38.06568908691412],[127.34448242187511,38.06530761718756]],[[127.34448242187511,38.06530761718756],[127.35089111328125,38.064453125]],[[127.35089111328125,38.064453125],[127.35192871093761,38.058471679687614]],[[127.35192871093761,38.058471679687614],[127.35288238525402,38.047698974609375]],[[127.35288238525402,38.047698974609375],[127.36010742187523,38.042053222656364]],[[127.36010742187523,38.042053222656364],[127.36608886718761,38.042724609375]],[[127.36608886718761,38.042724609375],[127.37127685546875,38.046829223632926]],[[127.37127685546875,38.046829223632926],[127.37652587890636,38.05328369140631]],[[127.37652587890636,38.05328369140631],[127.37969970703125,38.058471679687614]],[[127.37969970703125,38.058471679687614],[127.38387298583984,38.06549072265631]],[[127.38387298583984,38.06549072265631],[127.39228820800781,38.06983947753912]],[[127.39228820800781,38.06983947753912],[127.4002685546875,38.06886291503906]],[[127.4002685546875,38.06886291503906],[127.4080810546875,38.06390380859375]],[[127.4080810546875,38.06390380859375],[127.41650390625,38.05511474609375]],[[127.41650390625,38.05511474609375],[127.42309570312511,38.051513671875]],[[127.42309570312511,38.051513671875],[127.43328857421875,38.050292968750114]],[[127.43328857421875,38.050292968750114],[127.44012451171875,38.0518798828125]],[[127.44012451171875,38.0518798828125],[127.44549560546875,38.05604553222656]],[[127.44549560546875,38.05604553222656],[127.45068359375,38.062500000000114]],[[127.45068359375,38.062500000000114],[127.45526885986328,38.0715065002442]],[[127.45526885986328,38.0715065002442],[127.46123504638683,38.06919860839838]],[[127.46123504638683,38.06919860839838],[127.46565246582043,38.0440673828125]],[[127.46565246582043,38.0440673828125],[127.47129821777344,38.02803039550781]],[[127.47129821777344,38.02803039550781],[127.47308349609386,38.020324707031364]],[[127.47308349609386,38.020324707031364],[127.47290039062511,38.01312255859369]],[[127.47290039062511,38.01312255859369],[127.47210693359386,38.00667190551769]],[[127.11997222900413,36.925109863281364],[127.11250305175781,36.92354965209955]],[[127.11250305175781,36.92354965209955],[127.10031127929688,36.92398071289074]],[[127.10031127929688,36.92398071289074],[127.09359741210938,36.92291259765625]],[[127.09359741210938,36.92291259765625],[127.08831787109398,36.91687011718756]],[[127.08831787109398,36.91687011718756],[127.08508300781261,36.91210937500006]],[[127.08508300781261,36.91210937500006],[127.0791015625,36.90914916992182]],[[127.0791015625,36.90914916992182],[127.06797790527355,36.90681838989258]],[[127.06797790527355,36.90681838989258],[127.05419921875011,36.90609741210932]],[[127.05419921875011,36.90609741210932],[127.04339599609375,36.90332031250006]],[[127.04339599609375,36.90332031250006],[127.03320312500011,36.900604248046875]],[[127.03320312500011,36.900604248046875],[127.02447509765636,36.90087890625006]],[[127.02447509765636,36.90087890625006],[126.98538208007824,36.90640258789068]],[[126.98538208007824,36.90640258789068],[126.97808837890636,36.90667724609375]],[[126.97808837890636,36.90667724609375],[126.96881103515625,36.90469360351568]],[[126.96881103515625,36.90469360351568],[126.95840454101562,36.90451049804699]],[[126.95840454101562,36.90451049804699],[126.95050048828125,36.9027099609375]],[[126.95050048828125,36.9027099609375],[126.94128417968761,36.901672363281364]],[[126.94128417968761,36.901672363281364],[126.93511962890625,36.89990234375006]],[[126.93511962890625,36.89990234375006],[126.92132568359375,36.89947509765625]],[[126.92132568359375,36.89947509765625],[126.91098785400402,36.89630126953131]],[[126.91098785400402,36.89630126953131],[126.91077423095714,36.894859313964844]],[[127.57563018798828,37.58853530883795],[127.58404541015636,37.59144592285156]],[[127.58404541015636,37.59144592285156],[127.589111328125,37.59544754028332]],[[127.589111328125,37.59544754028332],[127.59669494628918,37.595458984375]],[[127.59669494628918,37.595458984375],[127.61462402343761,37.594081878662166]],[[127.61462402343761,37.594081878662166],[127.63367462158214,37.58564376831055]],[[127.63367462158214,37.58564376831055],[127.64508056640636,37.58172607421875]],[[127.64508056640636,37.58172607421875],[127.66448974609375,37.572082519531364]],[[127.66448974609375,37.572082519531364],[127.67706298828125,37.567504882812614]],[[127.67706298828125,37.567504882812614],[127.6875,37.56170654296875]],[[127.6875,37.56170654296875],[127.71051025390636,37.547302246093864]],[[127.71051025390636,37.547302246093864],[127.71802520751953,37.54325485229492]],[[127.71802520751953,37.54325485229492],[127.72551727294922,37.54108047485357]],[[127.72551727294922,37.54108047485357],[127.73445129394531,37.540847778320426]],[[127.73445129394531,37.540847778320426],[127.74604797363281,37.53944396972662]],[[127.74604797363281,37.53944396972662],[127.75669860839855,37.53125]],[[127.75669860839855,37.53125],[127.7633056640625,37.52789306640619]],[[127.7633056640625,37.52789306640619],[127.7718505859375,37.523864746093864]],[[127.7718505859375,37.523864746093864],[127.78089904785168,37.523254394531364]],[[127.78089904785168,37.523254394531364],[127.80043029785156,37.52565002441406]],[[127.80043029785156,37.52565002441406],[127.8074951171875,37.52850341796875]],[[127.8074951171875,37.52850341796875],[127.8173294067384,37.52686309814459]],[[127.8173294067384,37.52686309814459],[127.82330322265625,37.518676757812614]],[[127.82330322265625,37.518676757812614],[127.827880859375,37.5120849609375]],[[127.827880859375,37.5120849609375],[127.82749938964844,37.5052490234375]],[[127.82749938964844,37.5052490234375],[127.82592773437511,37.49969482421875]],[[127.82592773437511,37.49969482421875],[127.81684875488281,37.49180603027355]],[[127.81684875488281,37.49180603027355],[127.8084716796875,37.4832763671875]],[[127.8084716796875,37.4832763671875],[127.7953109741211,37.46829986572271]],[[127.7953109741211,37.46829986572271],[127.78930664062511,37.46246337890619]],[[127.78930664062511,37.46246337890619],[127.7795181274414,37.45591354370117]],[[127.7795181274414,37.45591354370117],[127.77503967285156,37.450454711914006]],[[127.77503967285156,37.450454711914006],[127.7752685546875,37.44230651855469]],[[127.7752685546875,37.44230651855469],[127.77949523925781,37.4375]],[[127.77949523925781,37.4375],[127.7874755859375,37.4337158203125]],[[127.7874755859375,37.4337158203125],[127.79791259765636,37.42608642578125]],[[127.79791259765636,37.42608642578125],[127.8062438964846,37.417716979980526]],[[127.8062438964846,37.417716979980526],[127.80746459960938,37.408908843994254]],[[127.80746459960938,37.408908843994254],[127.8074951171875,37.40112304687506]],[[127.8074951171875,37.40112304687506],[127.80712890625,37.39410400390631]],[[127.80712890625,37.39410400390631],[127.80828857421875,37.38470458984375]],[[127.80828857421875,37.38470458984375],[127.80828857421875,37.37770080566412]],[[127.80828857421875,37.37770080566412],[127.80731201171875,37.371093750000114]],[[127.80731201171875,37.371093750000114],[127.80470275878906,37.363845825195426]],[[127.80470275878906,37.363845825195426],[127.80326080322277,37.35526275634777]],[[127.80326080322277,37.35526275634777],[127.799072265625,37.342285156250114]],[[127.799072265625,37.342285156250114],[127.79743957519531,37.33589172363287]],[[127.79743957519531,37.33589172363287],[127.79351806640636,37.33050537109375]],[[127.79351806640636,37.33050537109375],[127.78430175781273,37.31902313232433]],[[127.78430175781273,37.31902313232433],[127.78083801269531,37.310440063476676]],[[127.78083801269531,37.310440063476676],[127.78224182128918,37.302909851074276]],[[127.78224182128918,37.302909851074276],[127.78451538085949,37.29264450073242]],[[127.78451538085949,37.29264450073242],[127.78548431396496,37.28676223754883]],[[127.78548431396496,37.28676223754883],[127.78472900390636,37.27618408203125]],[[127.78472900390636,37.27618408203125],[127.78552246093761,37.2666015625]],[[127.78552246093761,37.2666015625],[127.78491210937511,37.255310058593864]],[[127.78491210937511,37.255310058593864],[127.78579711914062,37.245086669921875]],[[127.78579711914062,37.245086669921875],[127.78610229492188,37.23599243164068]],[[127.78610229492188,37.23599243164068],[127.78640747070335,37.22509765625006]],[[127.78640747070335,37.22509765625006],[127.78311157226562,37.215911865234375]],[[127.78311157226562,37.215911865234375],[127.7762222290039,37.21256256103527]],[[127.7762222290039,37.21256256103527],[127.7655029296875,37.210083007812614]],[[127.7655029296875,37.210083007812614],[127.75650024414074,37.20590209960949]],[[127.75650024414074,37.20590209960949],[127.75311279296875,37.19610595703131]],[[127.75311279296875,37.19610595703131],[127.74932861328125,37.18792724609381]],[[127.74932861328125,37.18792724609381],[127.74652099609375,37.17910766601568]],[[127.74652099609375,37.17910766601568],[127.7388916015625,37.17010498046875]],[[127.7388916015625,37.17010498046875],[127.7349853515625,37.16351318359381]],[[127.7349853515625,37.16351318359381],[127.73028564453125,37.15869140625]],[[127.73028564453125,37.15869140625],[127.72271728515636,37.152099609375114]],[[127.72271728515636,37.152099609375114],[127.71771240234375,37.14669799804693]],[[127.71771240234375,37.14669799804693],[127.71301269531261,37.139007568359375]],[[127.71301269531261,37.139007568359375],[127.70849609375,37.13372802734381]],[[127.70849609375,37.13372802734381],[127.70111083984375,37.12670898437506]],[[127.70111083984375,37.12670898437506],[127.69610595703125,37.12109375]],[[127.69610595703125,37.12109375],[127.69158935546875,37.11309814453125]],[[127.69158935546875,37.11309814453125],[127.68627929687511,37.10687255859381]],[[127.68627929687511,37.10687255859381],[127.67510986328125,37.09675216674805]],[[127.67510986328125,37.09675216674805],[127.66729736328125,37.09289550781256]],[[127.66729736328125,37.09289550781256],[127.66018676757824,37.089996337890625]],[[127.66018676757824,37.089996337890625],[127.65170288085938,37.09121704101568]],[[127.65170288085938,37.09121704101568],[127.64392089843773,37.09710693359381]],[[127.64392089843773,37.09710693359381],[127.63808441162121,37.0992050170899]],[[126.98715209960972,38.20690536499029],[126.98503112792969,38.20043182373064]],[[126.98503112792969,38.20043182373064],[126.9909057617192,38.193115234375284]],[[126.9909057617192,38.193115234375284],[126.99487304687511,38.18707275390619]],[[126.99487304687511,38.18707275390619],[127.0015258789067,38.1787109375]],[[127.0015258789067,38.1787109375],[127.005126953125,38.17248535156256]],[[127.005126953125,38.17248535156256],[127.0109252929692,38.16387939453148]],[[127.0109252929692,38.16387939453148],[127.01470947265636,38.15490722656273]],[[127.01470947265636,38.15490722656273],[127.02032470703125,38.15124130249029]],[[127.02032470703125,38.15124130249029],[127.0275268554692,38.15008544921892]],[[127.0275268554692,38.15008544921892],[127.0374755859375,38.1505126953125]],[[127.0374755859375,38.1505126953125],[127.04605865478516,38.15143203735357]],[[127.04605865478516,38.15143203735357],[127.07312011718784,38.15411376953125]],[[127.07312011718784,38.15411376953125],[127.0828857421875,38.156494140625284]],[[127.0828857421875,38.156494140625284],[127.0906982421875,38.15686035156256]],[[127.0906982421875,38.15686035156256],[127.09649658203125,38.1539306640625]],[[127.09649658203125,38.1539306640625],[127.09883117675793,38.146713256836165]],[[127.09883117675793,38.146713256836165],[127.09552001953125,38.12652587890631]],[[127.09552001953125,38.12652587890631],[127.0927200317384,38.119255065918026]],[[127.0927200317384,38.119255065918026],[127.11386108398438,38.11182785034174]],[[127.11386108398438,38.11182785034174],[127.1085205078125,38.10632324218756]],[[127.1085205078125,38.10632324218756],[127.0963134765625,38.10131835937523]],[[127.0963134765625,38.10131835937523],[127.09130859375023,38.098327636719034]],[[127.09130859375023,38.098327636719034],[127.0889129638673,38.092239379882926]],[[127.0889129638673,38.092239379882926],[127.09429931640659,38.08587646484381]],[[127.09429931640659,38.08587646484381],[127.10150146484386,38.082519531250114]],[[127.10150146484386,38.082519531250114],[127.11151123046909,38.07989501953142]],[[127.11151123046909,38.07989501953142],[127.119873046875,38.07891845703119]],[[127.119873046875,38.07891845703119],[127.13830566406261,38.07769775390631]],[[127.13830566406261,38.07769775390631],[127.14770507812534,38.07672119140631]],[[127.14770507812534,38.07672119140631],[127.16851806640625,38.07330322265631]],[[127.16851806640625,38.07330322265631],[127.17698669433594,38.072570800781534]],[[129.3512573242191,37.164859771728516],[129.35238647460983,37.155792236328125]],[[129.35238647460983,37.155792236328125],[129.34654235839878,37.15099334716791]],[[129.34654235839878,37.15099334716791],[129.33328247070324,37.145812988281364]],[[129.33328247070324,37.145812988281364],[129.3272705078126,37.140075683594034]],[[129.3272705078126,37.140075683594034],[129.31750488281284,37.12628173828148]],[[129.31750488281284,37.12628173828148],[129.31259155273472,37.121215820312614]],[[129.31259155273472,37.121215820312614],[129.30712890625045,37.11730957031273]],[[129.30712890625045,37.11730957031273],[129.30081176757812,37.1123046875]],[[129.30081176757812,37.1123046875],[129.29470825195312,37.10961914062517]],[[129.29470825195312,37.10961914062517],[129.27969360351574,37.10671997070324]],[[129.27969360351574,37.10671997070324],[129.273406982422,37.10418701171881]],[[129.273406982422,37.10418701171881],[129.268310546875,37.09930419921869]],[[129.268310546875,37.09930419921869],[129.2592773437501,37.087280273437614]],[[129.2592773437501,37.087280273437614],[129.25460815429722,37.082092285156534]],[[129.25460815429722,37.082092285156534],[129.2467041015626,37.07550048828125]],[[129.2467041015626,37.07550048828125],[129.24279785156273,37.067810058593864]],[[129.24279785156273,37.067810058593864],[129.24209594726608,37.05810546874994]],[[129.24209594726608,37.05810546874994],[129.24530029296875,37.031921386719034]],[[129.24530029296875,37.031921386719034],[129.24560546875,37.02139282226568]],[[129.24560546875,37.02139282226568],[129.2423095703126,37.01528930664068]],[[129.2423095703126,37.01528930664068],[129.235809326172,37.01300048828131]],[[129.235809326172,37.01300048828131],[129.22769165039062,37.013702392578125]],[[129.22769165039062,37.013702392578125],[129.21652221679688,37.01699829101568]],[[129.21652221679688,37.01699829101568],[129.2069091796875,37.01788330078142]],[[129.2069091796875,37.01788330078142],[129.19927978515625,37.01751708984375]],[[129.19927978515625,37.01751708984375],[129.18899536132847,37.017272949218864]],[[129.18899536132847,37.017272949218864],[129.18118286132847,37.018280029296875]],[[129.18118286132847,37.018280029296875],[129.17547607421898,37.02130126953119]],[[129.17547607421898,37.02130126953119],[129.1655273437501,37.029479980468864]],[[129.1655273437501,37.029479980468864],[129.16009521484386,37.032989501953125]],[[129.16009521484386,37.032989501953125],[129.15069580078125,37.0372009277346]],[[129.15069580078125,37.0372009277346],[129.14471435546875,37.04132080078119]],[[129.14471435546875,37.04132080078119],[129.1359252929691,37.048522949219034]],[[129.1359252929691,37.048522949219034],[129.13040161132812,37.05178833007824]],[[129.13040161132812,37.05178833007824],[129.12451171875,37.054077148437614]],[[129.12451171875,37.054077148437614],[129.11767578125023,37.05688476562506]],[[129.11767578125023,37.05688476562506],[129.1116790771489,37.0567169189456]],[[129.11167907714855,37.056716918945426],[129.10479736328136,37.0535888671875]],[[129.10479736328136,37.0535888671875],[129.09790039062523,37.04818725585932]],[[129.09790039062523,37.04818725585932],[129.08587646484398,37.029479980468864]],[[129.08587646484398,37.029479980468864],[129.0805664062501,37.02288818359375]],[[129.0805664062501,37.02288818359375],[129.07330322265636,37.01910400390631]],[[129.07330322265636,37.01910400390631],[129.06729125976562,37.02001953125]],[[129.06729125976562,37.02001953125],[129.059326171875,37.02191162109375]],[[129.059326171875,37.02191162109375],[129.05328369140636,37.024291992187614]],[[129.05328369140636,37.024291992187614],[129.0443115234376,37.029296875000114]],[[129.0443115234376,37.029296875000114],[129.03790283203125,37.03149414062506]],[[129.03790283203125,37.03149414062506],[129.031494140625,37.033081054687614]],[[129.031494140625,37.033081054687614],[129.0205078125001,37.03472900390631]],[[129.0205078125001,37.03472900390631],[129.0029296875001,37.037109375000114]],[[129.0029296875001,37.037109375000114],[128.98968505859375,37.03768920898449]],[[128.98968505859375,37.03768920898449],[128.97930908203136,37.03570556640631]],[[128.97930908203136,37.03570556640631],[128.9722900390625,37.0360107421875]],[[128.9722900390625,37.0360107421875],[128.96429443359375,37.03839111328131]],[[128.96429443359375,37.03839111328131],[128.95672607421875,37.04388427734381]],[[128.95672607421875,37.04388427734381],[128.94805908203125,37.04920959472656]],[[128.94805908203125,37.04920959472656],[128.93649291992188,37.050064086914176]],[[128.93649291992188,37.050064086914176],[128.93011474609386,37.045104980468864]],[[128.19049072265625,37.2034912109375],[128.179901123047,37.203796386718864]],[[128.179901123047,37.203796386718864],[128.17138671875,37.20179367065441]],[[128.17138671875,37.20179367065441],[128.1625976562501,37.195098876953125]],[[128.1625976562501,37.195098876953125],[128.15509033203148,37.189178466796875]],[[128.15509033203148,37.189178466796875],[128.14749145507824,37.1875]],[[128.14749145507824,37.1875],[128.1223144531251,37.18707275390625]],[[128.1223144531251,37.18707275390625],[128.1160888671875,37.185577392578125]],[[128.1160888671875,37.185577392578125],[128.10922241210938,37.17608642578131]],[[128.10922241210938,37.17608642578131],[128.1029052734376,37.16809082031256]],[[128.1029052734376,37.16809082031256],[128.0968017578126,37.162078857421875]],[[128.0968017578126,37.162078857421875],[128.087890625,37.15780639648449]],[[128.087890625,37.15780639648449],[128.08032226562523,37.156677246093864]],[[128.08032226562523,37.156677246093864],[128.05810546875,37.15570068359381]],[[128.05810546875,37.15570068359381],[128.03488159179688,37.15499877929682]],[[128.03488159179688,37.15499877929682],[128.0273437500001,37.15823364257824]],[[128.0273437500001,37.15823364257824],[128.023895263672,37.16711425781256]],[[128.023895263672,37.16711425781256],[128.02609252929688,37.17568969726568]],[[128.02609252929688,37.17568969726568],[128.02499389648438,37.182617187500114]],[[128.02499389648438,37.182617187500114],[128.02130126953125,37.19049072265625]],[[128.02130126953125,37.19049072265625],[128.01849365234375,37.19628906250006]],[[128.01849365234375,37.19628906250006],[128.01422119140625,37.20149993896496]],[[128.01422119140625,37.20149993896496],[128.009521484375,37.20471191406256]],[[128.009521484375,37.20471191406256],[127.99969482421886,37.207214355468864]],[[127.99969482421886,37.207214355468864],[127.9880065917971,37.21200561523449]],[[127.9880065917971,37.21200561523449],[127.98059082031261,37.21371459960949]],[[127.98059082031261,37.21371459960949],[127.97100830078125,37.21420288085943]],[[127.97100830078125,37.21420288085943],[127.9644775390625,37.21307373046881]],[[127.9644775390625,37.21307373046881],[127.95550537109375,37.209716796875114]],[[127.95550537109375,37.209716796875114],[127.948486328125,37.20751953125]],[[127.948486328125,37.20751953125],[127.94329833984375,37.20489501953131]],[[127.94329833984375,37.20489501953131],[127.93099975585949,37.19879150390631]],[[127.93099975585949,37.19879150390631],[127.92431640625011,37.196086883545036]],[[127.92431640625011,37.196086883545036],[127.918701171875,37.19119262695324]],[[127.918701171875,37.19119262695324],[127.92047119140625,37.18328857421875]],[[127.92047119140625,37.18328857421875],[127.9237060546875,37.17852783203125]],[[127.9237060546875,37.17852783203125],[127.9271240234375,37.17388916015619]],[[127.9271240234375,37.17388916015619],[127.9324951171875,37.167999267578125]],[[127.9324951171875,37.167999267578125],[127.93829345703136,37.15948486328131]],[[127.93829345703136,37.15948486328131],[127.9405212402346,37.153900146484375]],[[127.9405212402346,37.153900146484375],[127.9405212402346,37.14657592773449]],[[127.9405212402346,37.14657592773449],[127.93792724609375,37.139709472656364]],[[127.93792724609375,37.139709472656364],[127.9341812133789,37.13085937500006]],[[127.9341812133789,37.13085937500006],[127.92880249023438,37.125640869140625]],[[127.92880249023438,37.125640869140625],[127.9202880859375,37.123291015625114]],[[127.9202880859375,37.123291015625114],[127.91308593750011,37.123291015625114]],[[127.91308593750011,37.123291015625114],[127.90447998046886,37.12371826171869]],[[127.90447998046886,37.12371826171869],[127.89721679687523,37.12359619140625]],[[127.89721679687523,37.12359619140625],[127.88821411132812,37.123901367187614]],[[127.88821411132812,37.123901367187614],[127.87799072265636,37.12277221679682]],[[127.87799072265636,37.12277221679682],[127.86907958984375,37.11810302734381]],[[127.86907958984375,37.11810302734381],[127.86309814453136,37.11669921875]],[[127.86309814453136,37.11669921875],[127.83270263671875,37.11651611328125]],[[127.83270263671875,37.11651611328125],[127.81948852539062,37.11590576171869]],[[127.81948852539062,37.11590576171869],[127.81039428710938,37.11929321289074]],[[127.81039428710938,37.11929321289074],[127.80590820312511,37.1248779296875]],[[127.80590820312511,37.1248779296875],[127.80548095703148,37.13311767578125]],[[127.80548095703148,37.13311767578125],[127.8031921386721,37.139617919921875]],[[127.8031921386721,37.139617919921875],[127.79888916015625,37.14691162109381]],[[127.79888916015625,37.14691162109381],[127.7958984375,37.1533203125]],[[127.7958984375,37.1533203125],[127.78984069824241,37.16461181640631]],[[127.78984069824241,37.16461181640631],[127.78584289550793,37.180130004882926]],[[127.78584289550793,37.180130004882926],[127.77951049804688,37.193206787109375]],[[127.77951049804688,37.193206787109375],[127.77749633789074,37.20278930664068]],[[127.77749633789074,37.20278930664068],[127.7762222290039,37.21256256103527]],[[128.93011474609386,37.045104980468864],[128.9329833984376,37.035400390625114]],[[128.9329833984376,37.035400390625114],[128.92852783203148,37.0308837890625]],[[128.92852783203148,37.0308837890625],[128.92089843750023,37.02999877929693]],[[128.92089843750023,37.02999877929693],[128.91290283203136,37.03009033203125]],[[128.91290283203136,37.03009033203125],[128.90667724609375,37.030517578125]],[[128.90667724609375,37.030517578125],[128.8955078125,37.03131103515631]],[[128.8955078125,37.03131103515631],[128.8839111328126,37.032806396484375]],[[128.8839111328126,37.032806396484375],[128.87512207031273,37.0352783203125]],[[128.87512207031273,37.0352783203125],[128.8685302734375,37.03790283203125]],[[128.8685302734375,37.03790283203125],[128.86151123046875,37.041503906250114]],[[128.86151123046875,37.041503906250114],[128.85272216796875,37.04711914062506]],[[128.85272216796875,37.04711914062506],[128.8450927734375,37.05133056640631]],[[128.8450927734375,37.05133056640631],[128.8394775390626,37.054077148437614]],[[128.8394775390626,37.054077148437614],[128.83392333984398,37.05670166015631]],[[128.83392333984398,37.05670166015631],[128.82550048828125,37.06030273437506]],[[128.82550048828125,37.06030273437506],[128.8169860839845,37.06268310546869]],[[128.8169860839845,37.06268310546869],[128.7965087890625,37.066101074218864]],[[128.7965087890625,37.066101074218864],[128.78851318359375,37.0675048828125]],[[128.78851318359375,37.0675048828125],[128.78289794921875,37.06848144531256]],[[128.78289794921875,37.06848144531256],[128.77639770507812,37.07171630859375]],[[128.77639770507812,37.07171630859375],[128.7711181640625,37.07470703124994]],[[128.7711181640625,37.07470703124994],[128.76438903808594,37.07503128051758]],[[128.76438903808594,37.07503128051758],[128.75711059570324,37.07119750976568]],[[128.75711059570324,37.07119750976568],[128.76831054687523,37.05572509765631]],[[128.76831054687523,37.05572509765631],[128.78009033203125,37.041870117187614]],[[128.78009033203125,37.041870117187614],[128.7797393798828,37.028564453125]],[[128.7797393798828,37.028564453125],[128.7727050781251,37.02587890624994]],[[128.7727050781251,37.02587890624994],[128.76690673828125,37.0255126953125]],[[128.76690673828125,37.0255126953125],[128.74667358398438,37.02520751953131]],[[128.74667358398438,37.02520751953131],[128.7441406250001,37.01524353027344]],[[128.7441406250001,37.01524353027344],[128.736297607422,37.00888061523449]],[[128.736297607422,37.00888061523449],[128.726318359375,37.008483886718864]],[[128.726318359375,37.008483886718864],[128.71658325195312,37.0098876953125]],[[128.71658325195312,37.0098876953125],[128.69583129882835,37.02062988281256]],[[128.69583129882835,37.02062988281256],[128.688720703125,37.02270507812506]],[[128.688720703125,37.02270507812506],[128.680908203125,37.0220947265625]],[[128.680908203125,37.0220947265625],[128.6605224609375,37.017272949218864]],[[128.6605224609375,37.017272949218864],[128.65100097656273,37.014678955078125]],[[128.65100097656273,37.014678955078125],[128.64468383789062,37.01654052734375]],[[128.64468383789062,37.01654052734375],[128.6420898437501,37.02758789062494]],[[128.6420898437501,37.02758789062494],[128.6337890625,37.0369873046875]],[[128.6337890625,37.0369873046875],[128.61911010742188,37.04220581054693]],[[128.61911010742188,37.04220581054693],[128.6132812500001,37.04327392578125]],[[128.6132812500001,37.04327392578125],[128.6062011718751,37.04400634765625]],[[128.6062011718751,37.04400634765625],[128.59979248046875,37.04360961914057]],[[128.59979248046875,37.04360961914057],[128.5828857421875,37.044128417968864]],[[128.5828857421875,37.044128417968864],[128.5767822265625,37.04449462890631]],[[128.5767822265625,37.04449462890631],[128.56719970703125,37.046905517578125]],[[128.56719970703125,37.046905517578125],[128.5584716796875,37.05511474609375]],[[128.5584716796875,37.05511474609375],[128.5540771484375,37.06048583984381]],[[128.5540771484375,37.06048583984381],[128.54827880859375,37.06787109375]],[[128.54827880859375,37.06787109375],[128.54220581054688,37.07260131835932]],[[128.54220581054688,37.07260131835932],[128.5330810546875,37.07470703124994]],[[128.5330810546875,37.07470703124994],[128.5148925781251,37.074279785156364]],[[128.5148925781251,37.074279785156364],[128.5066833496095,37.075103759765625]],[[128.5066833496095,37.075103759765625],[128.49778747558594,37.07889938354498]],[[128.49778747558594,37.07889938354498],[128.49188232421875,37.078491210937614]],[[128.49188232421875,37.078491210937614],[128.48428344726562,37.072998046875]],[[128.48428344726562,37.072998046875],[128.47607421875,37.069793701171875]],[[128.47607421875,37.069793701171875],[128.46832275390636,37.06909179687506]],[[128.46832275390636,37.06909179687506],[128.46270751953125,37.06811523437506]],[[128.46270751953125,37.06811523437506],[128.4346923828125,37.06399536132824]],[[128.4346923828125,37.06399536132824],[128.42550659179688,37.06509399414068]],[[128.42550659179688,37.06509399414068],[128.42001342773438,37.067626953125114]],[[128.42001342773438,37.067626953125114],[128.412078857422,37.072204589843864]],[[128.412078857422,37.072204589843864],[128.404998779297,37.08041381835949]],[[128.404998779297,37.08041381835949],[128.39749145507812,37.08489990234381]],[[128.39749145507812,37.08489990234381],[128.3942871093751,37.09112548828125]],[[128.3942871093751,37.09112548828125],[128.3917236328125,37.10388183593744]],[[128.3917236328125,37.10388183593744],[128.38946533203125,37.11132049560541]],[[128.38946533203125,37.11132049560541],[128.38470458984375,37.11679077148443]],[[128.38470458984375,37.11679077148443],[128.37493896484375,37.11664199829107]],[[128.37493896484375,37.11664199829107],[128.36767578125,37.116271972656364]],[[128.36767578125,37.116271972656364],[128.3582763671876,37.116271972656364]],[[128.3582763671876,37.116271972656364],[128.3507080078125,37.11590576171869]],[[128.3507080078125,37.11590576171869],[128.3385009765625,37.11572265625]],[[128.3385009765625,37.11572265625],[128.3288116455078,37.113960266113395]],[[128.3288116455078,37.113960266113395],[128.31289672851574,37.10260009765625]],[[128.31289672851574,37.10260009765625],[128.30218505859386,37.099487304687614]],[[128.30218505859386,37.099487304687614],[128.2921142578126,37.099487304687614]],[[128.2921142578126,37.099487304687614],[128.28388977050793,37.10277557373047]],[[128.28388977050793,37.10277557373047],[128.26962280273438,37.11437606811529]],[[128.26962280273438,37.11437606811529],[128.2642822265625,37.11791992187506]],[[128.2642822265625,37.11791992187506],[128.26211547851574,37.124557495117244]],[[128.26211547851574,37.124557495117244],[128.26681518554688,37.13058471679682]],[[128.26681518554688,37.13058471679682],[128.27572631835938,37.13418579101574]],[[128.27572631835938,37.13418579101574],[128.2827148437501,37.13848876953131]],[[128.2827148437501,37.13848876953131],[128.2924804687501,37.1458740234375]],[[128.2924804687501,37.1458740234375],[128.299530029297,37.150390625000114]],[[128.299530029297,37.150390625000114],[128.31201171875,37.15591430664074]],[[128.31201171875,37.15591430664074],[128.3184814453125,37.16027832031256]],[[128.3184814453125,37.16027832031256],[128.32376098632824,37.1651611328125]],[[128.32376098632824,37.1651611328125],[128.31970214843773,37.174896240234375]],[[128.31970214843773,37.174896240234375],[128.3123779296875,37.1809463500976]],[[128.3123779296875,37.1809463500976],[128.30477905273438,37.18017578124994]],[[128.30477905273438,37.18017578124994],[128.2965087890625,37.176330566406364]],[[128.2965087890625,37.176330566406364],[128.28948974609375,37.17492675781256]],[[128.28948974609375,37.17492675781256],[128.2821044921875,37.17547607421875]],[[128.2821044921875,37.17547607421875],[128.27560424804688,37.174285888671875]],[[128.27560424804688,37.174285888671875],[128.2666015625,37.174804687500114]],[[128.2666015625,37.174804687500114],[128.26031494140625,37.177692413330135]],[[128.26031494140625,37.177692413330135],[128.25372314453136,37.18322753906244]],[[128.25372314453136,37.18322753906244],[128.24627685546886,37.18627929687494]],[[128.24627685546886,37.18627929687494],[128.23260498046886,37.19250488281256]],[[128.23260498046886,37.19250488281256],[128.22528076171898,37.19592285156256]],[[128.22528076171898,37.19592285156256],[128.21987915039062,37.19811248779291]],[[128.21987915039062,37.19811248779291],[128.21334838867188,37.201210021972656]],[[128.21334838867188,37.201210021972656],[128.20709228515625,37.20300292968756]],[[128.20709228515625,37.20300292968756],[128.19049072265625,37.2034912109375]],[[127.78700256347668,36.56368637084961],[127.7902297973634,36.55664443969732]],[[127.7902297973634,36.55664443969732],[127.79578399658214,36.54740142822271]],[[127.79578399658214,36.54740142822271],[127.80164337158203,36.54267120361334]],[[127.80164337158203,36.54267120361334],[127.80810546875,36.54107666015625]],[[127.80810546875,36.54107666015625],[127.81811523437511,36.540283203125]],[[127.81811523437511,36.540283203125],[127.82440185546886,36.53927612304699]],[[127.82440185546886,36.53927612304699],[127.8328857421875,36.53692626953131]],[[127.8328857421875,36.53692626953131],[127.84368133544933,36.53483963012695]],[[127.84368133544933,36.53483963012695],[127.84981536865234,36.53253936767584]],[[127.84981536865234,36.53253936767584],[127.85386657714844,36.524356842041016]],[[127.85386657714844,36.524356842041016],[127.85759735107433,36.51612472534191]],[[127.85759735107433,36.51612472534191],[127.86300659179688,36.50909423828131]],[[127.86300659179688,36.50909423828131],[127.87521362304688,36.501983642578125]],[[127.87521362304688,36.501983642578125],[127.87921905517578,36.49631118774414]],[[127.87921905517578,36.49631118774414],[127.88510131835938,36.48580932617193]],[[127.88510131835938,36.48580932617193],[127.88651275634766,36.47645187377941]],[[127.88651275634766,36.47645187377941],[127.88459777832031,36.47020721435558]],[[127.88459777832031,36.47020721435558],[127.87881469726562,36.46511840820307]],[[127.87881469726562,36.46511840820307],[127.87131500244152,36.46414947509777]],[[127.87131500244152,36.46414947509777],[127.861083984375,36.46380615234375]],[[127.861083984375,36.46380615234375],[127.85209655761719,36.45700073242193]],[[127.85209655761719,36.45700073242193],[127.84983825683594,36.446151733398494]],[[127.84983825683594,36.446151733398494],[127.85369873046875,36.43850708007818]],[[127.85369873046875,36.43850708007818],[127.861083984375,36.429107666015625]],[[127.861083984375,36.429107666015625],[127.85975646972656,36.418243408203125]],[[127.85975646972656,36.418243408203125],[127.8545608520509,36.41136550903332]],[[127.8545608520509,36.41136550903332],[127.85079956054688,36.40628051757818]],[[127.85079956054688,36.40628051757818],[127.85150146484386,36.397796630859375]],[[127.85150146484386,36.397796630859375],[127.8538818359375,36.38970947265631]],[[127.8538818359375,36.38970947265631],[127.85321044921886,36.38281250000006]],[[127.85321044921886,36.38281250000006],[127.85059356689453,36.3743896484375]],[[127.85059356689453,36.3743896484375],[127.84439086914085,36.36209106445324]],[[127.84439086914085,36.36209106445324],[127.84738159179688,36.352630615234375]],[[127.84738159179688,36.352630615234375],[127.86080169677746,36.348159790039176]],[[127.86080169677746,36.348159790039176],[127.85855865478527,36.33857345581055]],[[128.117401123047,36.79212570190424],[128.11590576171875,36.78350830078125]],[[128.11590576171875,36.78350830078125],[128.11062622070312,36.77478027343756]],[[128.11062622070312,36.77478027343756],[128.103515625,36.767822265625]],[[128.103515625,36.767822265625],[128.0979003906251,36.76507568359381]],[[128.0979003906251,36.76507568359381],[128.09210205078125,36.764709472656364]],[[128.09210205078125,36.764709472656364],[128.08331298828125,36.765319824218864]],[[128.08331298828125,36.765319824218864],[128.07760620117188,36.76660156250006]],[[128.07760620117188,36.76660156250006],[128.06768798828125,36.772521972656364]],[[128.06768798828125,36.772521972656364],[128.0575408935547,36.780685424804744]],[[128.64468383789062,37.01654052734375],[128.63995361328136,37.00880432128912]],[[128.63995361328136,37.00880432128912],[128.63299560546875,37.00271606445318]],[[128.63299560546875,37.00271606445318],[128.623992919922,37.00250244140631]],[[128.623992919922,37.00250244140631],[128.61709594726574,37.00231933593756]],[[128.61709594726574,37.00231933593756],[128.610107421875,37.00375366210932]],[[128.610107421875,37.00375366210932],[128.60220336914074,37.00479125976568]],[[128.60220336914074,37.00479125976568],[128.59588623046898,37.004882812500114]],[[128.59588623046898,37.004882812500114],[128.5878906250001,37.00100708007818]],[[128.5878906250001,37.00100708007818],[128.57611083984386,36.99890136718756]],[[128.57611083984386,36.99890136718756],[128.5706787109375,36.995727539062614]],[[128.5706787109375,36.995727539062614],[128.56707763671898,36.99011230468756]],[[128.56707763671898,36.99011230468756],[128.56390380859386,36.98431396484375]],[[128.56390380859386,36.98431396484375],[128.56158447265636,36.97650146484375]],[[128.56158447265636,36.97650146484375],[128.5584716796875,36.970520019531364]],[[128.5584716796875,36.970520019531364],[128.55499267578125,36.9644775390625]],[[128.55499267578125,36.9644775390625],[128.5487060546875,36.95880126953125]],[[128.5487060546875,36.95880126953125],[128.5427246093751,36.95568847656244]],[[128.5427246093751,36.95568847656244],[128.533905029297,36.95208740234375]],[[128.533905029297,36.95208740234375],[128.5144958496095,36.94949340820318]],[[128.5144958496095,36.94949340820318],[128.50808715820312,36.94631958007824]],[[128.50808715820312,36.94631958007824],[128.5048828125,36.94128417968756]],[[128.5048828125,36.94128417968756],[128.5015869140625,36.934875488281364]],[[128.5015869140625,36.934875488281364],[128.49670410156273,36.92810058593756]],[[128.49670410156273,36.92810058593756],[128.48968505859386,36.9237060546875]],[[128.48968505859386,36.9237060546875],[128.48211669921875,36.92071533203131]],[[128.48211669921875,36.92071533203131],[128.47105407714844,36.917297363281364]],[[128.47105407714844,36.917297363281364],[128.46151733398438,36.90988159179699]],[[128.46151733398438,36.90988159179699],[128.45347595214855,36.90641403198242]],[[128.45347595214855,36.90641403198242],[128.4484863281251,36.90191650390625]],[[128.4484863281251,36.90191650390625],[128.44290161132812,36.89648437500006]],[[128.44290161132812,36.89648437500006],[128.43882751464844,36.889923095703125]],[[128.43882751464844,36.889923095703125],[128.43499755859375,36.885257720947266]],[[128.43499755859375,36.885257720947266],[128.43099975585938,36.87543106079113]],[[128.43099975585938,36.87543106079113],[128.4293212890625,36.8695068359375]],[[128.4293212890625,36.8695068359375],[128.42819213867188,36.862350463867244]],[[128.42819213867188,36.862350463867244],[128.41914367675793,36.85235595703125]],[[128.41914367675793,36.85235595703125],[128.42288208007835,36.84039306640631]],[[128.42288208007835,36.84039306640631],[128.43081665039062,36.83099365234375]],[[128.43081665039062,36.83099365234375],[128.43548583984386,36.82220458984375]],[[128.43548583984386,36.82220458984375],[128.43698120117188,36.814331054687614]],[[128.43698120117188,36.814331054687614],[128.43270874023438,36.80459594726574]],[[128.43270874023438,36.80459594726574],[128.43212890625,36.796875]],[[128.43212890625,36.796875],[128.4291992187501,36.79119873046881]],[[128.4291992187501,36.79119873046881],[128.421875,36.786682128906364]],[[128.421875,36.786682128906364],[128.4152832031251,36.781677246093864]],[[128.4152832031251,36.781677246093864],[128.4097900390626,36.77972412109381]],[[128.4097900390626,36.77972412109381],[128.4027099609376,36.77490234375]],[[128.4027099609376,36.77490234375],[128.39529418945324,36.773681640625114]],[[128.39529418945324,36.773681640625114],[128.38858032226574,36.77508544921875]],[[128.38858032226574,36.77508544921875],[128.37857055664062,36.78128433227539]],[[128.37857055664062,36.78128433227539],[128.37091064453125,36.78207397460949]],[[128.37091064453125,36.78207397460949],[128.36590576171886,36.77911376953125]],[[128.36590576171886,36.77911376953125],[128.35711669921886,36.770812988281364]],[[128.35711669921886,36.770812988281364],[128.351318359375,36.76831054687506]],[[128.351318359375,36.76831054687506],[128.34332275390625,36.76852416992199]],[[128.34332275390625,36.76852416992199],[128.3334960937501,36.77239990234375]],[[128.3334960937501,36.77239990234375],[128.32124328613293,36.77642822265625]],[[128.32124328613293,36.77642822265625],[128.30389404296886,36.77630615234381]],[[128.30389404296886,36.77630615234381],[128.29849243164062,36.77801513671881]],[[128.29849243164062,36.77801513671881],[128.293701171875,36.78448486328131]],[[128.293701171875,36.78448486328131],[128.290008544922,36.79058837890631]],[[128.290008544922,36.79058837890631],[128.28448486328136,36.793701171875114]],[[128.28448486328136,36.793701171875114],[128.27459716796875,36.79470825195307]],[[128.27459716796875,36.79470825195307],[128.26568603515625,36.797729492187614]],[[128.26568603515625,36.797729492187614],[128.2591552734375,36.799102783203125]],[[128.2591552734375,36.799102783203125],[128.25640869140636,36.805999755859375]],[[128.25640869140636,36.805999755859375],[128.25152587890625,36.81512451171875]],[[128.25152587890625,36.81512451171875],[128.24864196777344,36.82402420043945]],[[128.24864196777344,36.82402420043945],[128.2423095703126,36.82769775390619]],[[128.2423095703126,36.82769775390619],[128.2354736328125,36.83270263671875]],[[128.2354736328125,36.83270263671875],[128.2296142578125,36.83270263671875]],[[128.2296142578125,36.83270263671875],[128.22247314453136,36.82550048828131]],[[128.0575408935547,36.780685424804744],[128.05072021484375,36.777008056640625]],[[128.05072021484375,36.777008056640625],[128.04791259765636,36.771484375]],[[128.04791259765636,36.771484375],[128.04608154296875,36.760589599609375]],[[128.04608154296875,36.760589599609375],[128.04251098632812,36.755187988281364]],[[128.04251098632812,36.755187988281364],[128.03689575195324,36.751800537109375]],[[128.03689575195324,36.751800537109375],[128.02908325195324,36.748992919921875]],[[128.02908325195324,36.748992919921875],[128.0244140625,36.74371337890631]],[[128.0244140625,36.74371337890631],[128.0230712890625,36.736877441406364]],[[128.0230712890625,36.736877441406364],[128.0211181640625,36.72509765625]],[[128.0211181640625,36.72509765625],[128.0205078125001,36.711303710937614]],[[128.0205078125001,36.711303710937614],[128.02569580078125,36.705383300781364]],[[128.02569580078125,36.705383300781364],[128.0338134765626,36.70010375976557]],[[128.0338134765626,36.70010375976557],[128.04510498046886,36.69067382812506]],[[128.04510498046886,36.69067382812506],[128.05108642578125,36.687683105468864]],[[128.05108642578125,36.687683105468864],[128.05654907226574,36.68433380126953]],[[128.05654907226574,36.68433380126953],[128.05419921875023,36.676212310791016]],[[128.05419921875023,36.676212310791016],[128.0355682373048,36.67526245117199]],[[128.0355682373048,36.67526245117199],[128.02630615234375,36.67868041992199]],[[128.02630615234375,36.67868041992199],[128.01690673828125,36.68710327148449]],[[128.01690673828125,36.68710327148449],[128.00799560546875,36.68960571289057]],[[128.00799560546875,36.68960571289057],[127.97129058837902,36.689575195312614]],[[127.97129058837902,36.689575195312614],[127.96310424804688,36.69488525390631]],[[127.96310424804688,36.69488525390631],[127.95249938964844,36.69778442382824]],[[127.95249938964844,36.69778442382824],[127.944091796875,36.69390869140631]],[[127.944091796875,36.69390869140631],[127.93951416015625,36.68890380859375]],[[127.93951416015625,36.68890380859375],[127.935302734375,36.68170166015631]],[[127.935302734375,36.68170166015631],[127.9302978515625,36.67572021484375]],[[127.9302978515625,36.67572021484375],[127.91755676269531,36.67373657226574]],[[127.91755676269531,36.67373657226574],[127.91009521484375,36.66619873046875]],[[127.91009521484375,36.66619873046875],[127.906494140625,36.6602783203125]],[[127.906494140625,36.6602783203125],[127.90032196044933,36.656471252441406]],[[127.90032196044933,36.656471252441406],[127.89199829101562,36.65451049804682]],[[127.89199829101562,36.65451049804682],[127.88589477539062,36.64468383789068]],[[127.88589477539062,36.64468383789068],[127.88470458984386,36.637512207031364]],[[127.88470458984386,36.637512207031364],[127.89129638671875,36.63592529296881]],[[127.89129638671875,36.63592529296881],[127.90579223632812,36.63589477539068]],[[127.90579223632812,36.63589477539068],[127.91177368164074,36.62979125976568]],[[127.91177368164074,36.62979125976568],[127.91290283203136,36.62152099609369]],[[127.91290283203136,36.62152099609369],[127.91114807128929,36.61288452148449]],[[127.91114807128929,36.61288452148449],[127.91409301757812,36.603607177734375]],[[127.91409301757812,36.603607177734375],[127.91412353515625,36.59485626220703]],[[127.91412353515625,36.59485626220703],[127.89721679687523,36.577880859375]],[[127.89721679687523,36.577880859375],[127.8889389038086,36.57542800903332]],[[127.8889389038086,36.57542800903332],[127.87792205810547,36.583225250244254]],[[127.87792205810547,36.583225250244254],[127.86590576171875,36.59252929687494]],[[127.86590576171875,36.59252929687494],[127.86291503906261,36.59860229492199]],[[127.86291503906261,36.59860229492199],[127.85687255859375,36.60028076171881]],[[127.85687255859375,36.60028076171881],[127.85000610351562,36.60549926757807]],[[127.85000610351562,36.60549926757807],[127.84237670898438,36.60589599609375]],[[127.84237670898438,36.60589599609375],[127.83609008789062,36.601898193359375]],[[127.83609008789062,36.601898193359375],[127.83087158203136,36.59710693359369]],[[127.83087158203136,36.59710693359369],[127.82699584960938,36.59060668945324]],[[127.82699584960938,36.59060668945324],[127.82402801513683,36.57994461059576]],[[127.82402801513683,36.57994461059576],[127.80728149414062,36.581298828125]],[[127.80728149414062,36.581298828125],[127.79959106445324,36.58050537109369]],[[127.79959106445324,36.58050537109369],[127.788818359375,36.5751953125]],[[127.788818359375,36.5751953125],[127.78628540039074,36.56997680664074]],[[127.78628540039074,36.56997680664074],[127.78700256347668,36.56368637084961]],[[128.22247314453136,36.82550048828131],[128.22171020507824,36.81179809570318]],[[128.22171020507824,36.81179809570318],[128.21710205078136,36.80767822265619]],[[128.21710205078136,36.80767822265619],[128.2090759277346,36.80648803710949]],[[128.2090759277346,36.80648803710949],[128.2056884765626,36.801513671875114]],[[128.2056884765626,36.801513671875114],[128.2050781250001,36.793884277343864]],[[128.2050781250001,36.793884277343864],[128.2025146484375,36.786071777343864]],[[128.2025146484375,36.786071777343864],[128.20199584960938,36.779296875]],[[128.20199584960938,36.779296875],[128.19891357421875,36.772796630859375]],[[128.19891357421875,36.772796630859375],[128.192108154297,36.771484375]],[[128.192108154297,36.771484375],[128.1578826904297,36.774948120117244]],[[128.1578826904297,36.774948120117244],[128.1490173339845,36.77819824218756]],[[128.1490173339845,36.77819824218756],[128.1433868408203,36.77976608276367]],[[128.1433868408203,36.77976608276367],[128.1345214843751,36.781127929687614]],[[128.1345214843751,36.781127929687614],[128.1320800781251,36.78649902343744]],[[128.1320800781251,36.78649902343744],[128.131591796875,36.79327392578131]],[[128.131591796875,36.79327392578131],[128.12451171875,36.796386718750114]],[[128.12451171875,36.796386718750114],[128.117401123047,36.79212570190424]],[[127.85855865478527,36.33857345581055],[127.86680603027344,36.33204650878906]],[[127.86680603027344,36.33204650878906],[127.86982727050793,36.324722290039176]],[[127.86982727050793,36.324722290039176],[127.86291503906261,36.31768798828125]],[[127.86291503906261,36.31768798828125],[127.85528564453136,36.31378173828131]],[[127.85528564453136,36.31378173828131],[127.84724426269554,36.30415344238281]],[[127.84724426269554,36.30415344238281],[127.8433837890625,36.29528808593756]],[[127.8433837890625,36.29528808593756],[127.83270263671875,36.28631591796881]],[[127.83270263671875,36.28631591796881],[127.82830810546875,36.28228759765631]],[[128.01719665527366,36.20694732666021],[128.01470947265648,36.19952392578131]],[[128.01470947265648,36.19952392578131],[128.0166015625,36.18978881835943]],[[128.0166015625,36.18978881835943],[128.02207946777344,36.1836776733399]],[[128.02207946777344,36.1836776733399],[128.03280639648438,36.17462158203119]],[[128.03280639648438,36.17462158203119],[128.03570556640636,36.169677734375]],[[128.03570556640636,36.169677734375],[128.0350036621095,36.16239547729498]],[[128.0350036621095,36.16239547729498],[128.02850341796886,36.15887451171881]],[[128.02850341796886,36.15887451171881],[128.0218200683595,36.154998779296875]],[[128.0218200683595,36.154998779296875],[128.01234436035156,36.157684326171875]],[[128.01234436035156,36.157684326171875],[128.00070190429688,36.16470336914057]],[[128.00070190429688,36.16470336914057],[127.99380493164074,36.166290283203125]],[[127.99380493164074,36.166290283203125],[127.98681640625,36.166290283203125]],[[127.98681640625,36.166290283203125],[127.98049926757812,36.164123535156364]],[[127.98049926757812,36.164123535156364],[127.97052001953136,36.156677246093864]],[[127.97052001953136,36.156677246093864],[127.96490478515625,36.15289306640625]],[[127.96490478515625,36.15289306640625],[127.96051025390625,36.14309692382824]],[[127.96051025390625,36.14309692382824],[127.96530914306663,36.13636398315441]],[[127.96530914306663,36.13636398315441],[127.97113037109375,36.130126953125114]],[[127.97113037109375,36.130126953125114],[127.97502899169922,36.123920440673885]],[[127.97502899169922,36.123920440673885],[127.97549438476574,36.114501953125114]],[[127.97549438476574,36.114501953125114],[127.97285461425781,36.104797363281364]],[[127.97285461425781,36.104797363281364],[127.97109985351574,36.09219360351574]],[[127.97109985351574,36.09219360351574],[127.96640014648438,36.087310791015625]],[[127.96640014648438,36.087310791015625],[127.95378112792969,36.084991455078125]],[[127.95378112792969,36.084991455078125],[127.94989013671886,36.07611083984381]],[[127.94989013671886,36.07611083984381],[127.94729614257812,36.068206787109375]],[[127.94729614257812,36.068206787109375],[127.94720458984386,36.05999755859369]],[[127.94720458984386,36.05999755859369],[127.94808197021484,36.04014968872076]],[[127.94808197021484,36.04014968872076],[127.9437255859375,36.03051757812506]],[[127.9437255859375,36.03051757812506],[127.93525695800781,36.02461242675787]],[[127.93525695800781,36.02461242675787],[127.92098999023438,36.028503417968864]],[[127.92098999023438,36.028503417968864],[127.91162109375,36.027984619140625]],[[127.91162109375,36.027984619140625],[127.90499877929688,36.02621459960949]],[[127.90499877929688,36.02621459960949],[127.89532470703136,36.01867675781256]],[[127.89532470703136,36.01867675781256],[127.88998413085949,36.015686035156364]],[[127.88998413085949,36.015686035156364],[127.88031005859386,36.01229858398449]],[[127.88031005859386,36.01229858398449],[127.87928771972679,36.002128601074276]],[[127.87928771972679,36.002128601074276],[127.86657714843761,35.999755859375]],[[127.86657714843761,35.999755859375],[127.85809326171875,35.99652099609375]],[[127.85809326171875,35.99652099609375],[127.84988403320312,35.99609374999994]],[[127.84988403320312,35.99609374999994],[127.84191894531261,35.99810791015631]],[[127.84191894531261,35.99810791015631],[127.83468627929699,36.004821777343864]],[[127.83468627929699,36.004821777343864],[127.826416015625,36.00650024414068]],[[127.826416015625,36.00650024414068],[127.81561279296886,36.00228881835943]],[[127.81561279296886,36.00228881835943],[127.80389404296875,35.997009277343864]],[[127.80389404296875,35.997009277343864],[127.79449462890625,35.99310302734375]],[[127.79449462890625,35.99310302734375],[127.7880859375,35.99212646484375]],[[127.7880859375,35.99212646484375],[127.75714874267578,35.991699218750114]],[[127.75714874267578,35.991699218750114],[127.75100708007812,35.9967041015625]],[[127.75100708007812,35.9967041015625],[127.73480224609375,36.004272460937614]],[[127.73480224609375,36.004272460937614],[127.72369384765636,36.005004882812614]],[[127.72369384765636,36.005004882812614],[127.68707275390636,36.004089355468864]],[[127.68707275390636,36.004089355468864],[127.67410278320324,36.004821777343864]],[[127.67410278320324,36.004821777343864],[127.66827392578125,36.01278686523443]],[[127.66827392578125,36.01278686523443],[127.66259765625,36.02007293701183]],[[127.66259765625,36.02007293701183],[127.65394592285156,36.02401733398443]],[[127.65394592285156,36.02401733398443],[127.64891815185558,36.01969146728527]],[[127.82830810546875,36.28228759765631],[127.82690429687511,36.27352905273443]],[[127.82690429687511,36.27352905273443],[127.8267822265625,36.26669311523449]],[[127.8267822265625,36.26669311523449],[127.82949829101562,36.258209228515625]],[[127.82949829101562,36.258209228515625],[127.82895660400402,36.25044631958002]],[[127.82895660400402,36.25044631958002],[127.84527587890625,36.245727539062614]],[[127.84527587890625,36.245727539062614],[127.852294921875,36.245208740234375]],[[127.852294921875,36.245208740234375],[127.86225891113281,36.24685287475586]],[[127.86225891113281,36.24685287475586],[127.87384033203125,36.25125122070324]],[[127.87384033203125,36.25125122070324],[127.88229370117188,36.25079345703125]],[[127.88229370117188,36.25079345703125],[127.89712524414062,36.24432373046881]],[[127.89712524414062,36.24432373046881],[127.90939331054688,36.23480224609381]],[[127.90939331054688,36.23480224609381],[127.91687011718773,36.23107910156244]],[[127.91687011718773,36.23107910156244],[127.92226409912121,36.22830963134771]],[[127.92226409912121,36.22830963134771],[127.92791748046875,36.226074218750114]],[[127.92791748046875,36.226074218750114],[127.93688964843773,36.22488403320318]],[[127.93688964843773,36.22488403320318],[127.94708251953125,36.22448730468756]],[[127.94708251953125,36.22448730468756],[127.95515441894531,36.225082397460994]],[[127.95515441894531,36.225082397460994],[127.97204589843761,36.2299041748048]],[[127.97204589843761,36.2299041748048],[127.98028564453125,36.230285644531364]],[[127.98028564453125,36.230285644531364],[127.98783111572277,36.229488372802734]],[[127.98783111572277,36.229488372802734],[127.99468994140648,36.2279052734375]],[[127.99468994140648,36.2279052734375],[128.00311279296886,36.22412109375006]],[[128.00311279296886,36.22412109375006],[128.01181030273438,36.222290039062614]],[[128.01181030273438,36.222290039062614],[128.015380859375,36.21667480468756]],[[128.015380859375,36.21667480468756],[128.01719665527366,36.20694732666021]],[[126.98716735839844,36.146007537841854],[126.97268676757812,36.14828491210949]],[[126.97268676757812,36.14828491210949],[126.965087890625,36.14990234375006]],[[126.965087890625,36.14990234375006],[126.95660400390625,36.1544189453125]],[[126.95660400390625,36.1544189453125],[126.94909667968761,36.15841674804682]],[[126.94909667968761,36.15841674804682],[126.94128417968761,36.15969848632824]],[[126.94128417968761,36.15969848632824],[126.93231201171886,36.15600585937506]],[[126.93231201171886,36.15600585937506],[126.92318725585949,36.1492919921875]],[[126.92318725585949,36.1492919921875],[126.91012573242188,36.14401245117193]],[[126.91012573242188,36.14401245117193],[126.89431762695312,36.14480590820318]],[[126.89431762695312,36.14480590820318],[126.88694763183605,36.14118194580084]],[[126.88694763183605,36.14118194580084],[126.88189697265625,36.135314941406364]],[[126.88189697265625,36.135314941406364],[126.87588500976574,36.12655639648432]],[[126.87588500976574,36.12655639648432],[126.8726806640625,36.11730957031256]],[[126.8726806640625,36.11730957031256],[126.8651809692384,36.08754730224615]],[[127.64891815185558,36.01969146728527],[127.648681640625,36.01312255859375]],[[127.648681640625,36.01312255859375],[127.64758300781261,35.998901367187614]],[[127.64758300781261,35.998901367187614],[127.64346313476562,35.9888916015625]],[[127.64346313476562,35.9888916015625],[127.63571166992188,35.9827880859375]],[[127.63571166992188,35.9827880859375],[127.6295166015625,35.98028564453125]],[[127.6295166015625,35.98028564453125],[127.62408447265648,35.97827148437506]],[[127.62408447265648,35.97827148437506],[127.61487579345703,35.973602294921875]],[[127.61487579345703,35.973602294921875],[127.58428955078136,35.97308349609375]],[[127.58428955078136,35.97308349609375],[127.56250000000011,35.97308349609375]],[[127.56250000000011,35.97308349609375],[127.55029296875011,35.97569274902338]],[[127.55029296875011,35.97569274902338],[127.54547119140625,35.98510742187506]],[[127.54547119140625,35.98510742187506],[127.54107666015625,35.994323730468864]],[[127.54107666015625,35.994323730468864],[127.53738403320312,36.001586914062614]],[[127.53738403320312,36.001586914062614],[127.53009033203136,36.00198364257824]],[[127.53009033203136,36.00198364257824],[127.52349853515625,35.99942016601568]],[[127.52349853515625,35.99942016601568],[127.5164794921875,35.9967041015625]],[[127.5164794921875,35.9967041015625],[127.50830078125,35.994323730468864]],[[127.50830078125,35.994323730468864],[127.4998779296875,35.9923095703125]],[[127.4998779296875,35.9923095703125],[127.47229003906261,35.98907470703125]],[[127.47229003906261,35.98907470703125],[127.46359252929688,35.989288330078125]],[[127.46359252929688,35.989288330078125],[127.45590209960949,35.99142456054693]],[[127.45590209960949,35.99142456054693],[127.44873046875,35.996276855468864]],[[127.44873046875,35.996276855468864],[127.44193267822288,36.00134277343756]],[[127.44193267822288,36.00134277343756],[127.4329605102539,36.00449752807623]],[[127.4329605102539,36.00449752807623],[127.41838836669922,36.00890731811529]],[[127.41838836669922,36.00890731811529],[127.40789794921875,36.01287841796869]],[[127.40789794921875,36.01287841796869],[127.38980102539062,36.02084350585949]],[[127.38980102539062,36.02084350585949],[127.3751220703125,36.0537109375]],[[127.3751220703125,36.0537109375],[127.37231445312523,36.05987548828131]],[[127.37231445312523,36.05987548828131],[127.36749267578125,36.06707763671875]],[[127.36749267578125,36.06707763671875],[127.36071777343761,36.07470703125]],[[127.36071777343761,36.07470703125],[127.35528564453125,36.081115722656364]],[[127.35528564453125,36.081115722656364],[127.34832763671886,36.08831787109381]],[[127.34832763671886,36.08831787109381],[127.34167480468761,36.09613037109381]],[[127.34167480468761,36.09613037109381],[127.334716796875,36.10369873046875]],[[127.334716796875,36.10369873046875],[127.326904296875,36.11291503906256]],[[127.326904296875,36.11291503906256],[127.31561279296875,36.12368774414074]],[[127.31561279296875,36.12368774414074],[127.30648803710938,36.12807464599621]],[[127.30648803710938,36.12807464599621],[127.29634094238281,36.1265106201173]],[[127.29634094238281,36.1265106201173],[127.2860107421875,36.12197875976557]],[[127.2860107421875,36.12197875976557],[127.27691650390625,36.11712646484381]],[[127.27691650390625,36.11712646484381],[127.26879882812511,36.11471557617199]],[[127.26879882812511,36.11471557617199],[127.263916015625,36.1116943359375]],[[127.263916015625,36.1116943359375],[127.256103515625,36.11007690429693]],[[127.256103515625,36.11007690429693],[127.2479248046875,36.10729980468744]],[[127.2479248046875,36.10729980468744],[127.24050903320312,36.1044921875]],[[127.24050903320312,36.1044921875],[127.22698974609386,36.089202880859375]],[[127.22698974609386,36.089202880859375],[127.22131347656261,36.08850097656256]],[[127.22131347656261,36.08850097656256],[127.21520996093761,36.089599609375]],[[127.21520996093761,36.089599609375],[127.2080078125,36.095703125]],[[127.2080078125,36.095703125],[127.20010375976574,36.09729003906256]],[[127.20010375976574,36.09729003906256],[127.19348144531261,36.09649658203131]],[[127.19348144531261,36.09649658203131],[127.18600463867199,36.092071533203125]],[[127.18600463867199,36.092071533203125],[127.1781005859375,36.08831787109381]],[[127.1781005859375,36.08831787109381],[127.17150878906261,36.08770751953125]],[[127.17150878906261,36.08770751953125],[127.16333770751964,36.08690261840826]],[[127.16333770751964,36.08690261840826],[127.15509033203136,36.080154418945426]],[[127.15509033203136,36.080154418945426],[127.14538574218761,36.07748413085949]],[[127.14538574218761,36.07748413085949],[127.13970947265625,36.078674316406364]],[[127.13970947265625,36.078674316406364],[127.132080078125,36.08020401000982]],[[127.132080078125,36.08020401000982],[127.1292724609375,36.07208251953131]],[[127.1292724609375,36.07208251953131],[127.12618255615234,36.06727600097656]],[[127.12618255615234,36.06727600097656],[127.11767578125,36.06787109375]],[[127.11767578125,36.06787109375],[127.0950927734375,36.06811523437506]],[[127.0950927734375,36.06811523437506],[127.08758544921886,36.06842041015625]],[[127.08758544921886,36.06842041015625],[127.0770263671875,36.07189941406256]],[[127.0770263671875,36.07189941406256],[127.06372833251964,36.073493957519645]],[[127.06372833251964,36.073493957519645],[127.05599975585938,36.07687377929693]],[[127.05599975585938,36.07687377929693],[127.05072021484375,36.07891845703125]],[[127.05072021484375,36.07891845703125],[127.04962158203136,36.08464813232422]],[[127.04962158203136,36.08464813232422],[127.04830932617199,36.09140014648443]],[[127.04830932617199,36.09140014648443],[127.04550170898438,36.098724365234375]],[[127.04550170898438,36.098724365234375],[127.04248046875,36.10711669921875]],[[127.04248046875,36.10711669921875],[127.03848266601562,36.11590576171875]],[[127.03848266601562,36.11590576171875],[127.03448486328125,36.1239013671875]],[[127.03448486328125,36.1239013671875],[127.03138732910156,36.129970550537166]],[[127.03138732910156,36.129970550537166],[127.02569580078125,36.13388061523443]],[[127.02569580078125,36.13388061523443],[127.01892089843761,36.13507080078131]],[[127.01892089843761,36.13507080078131],[127.00610351562523,36.134796142578125]],[[127.00610351562523,36.134796142578125],[126.99548339843761,36.139099121093864]],[[126.99548339843761,36.139099121093864],[126.98716735839844,36.146007537841854]],[[126.8651809692384,36.08754730224615],[126.87347412109409,36.085876464844034]],[[126.87347412109409,36.085876464844034],[126.86917877197277,36.07838058471691]],[[126.86917877197277,36.07838058471691],[126.8634033203125,36.06838989257807]],[[126.8634033203125,36.06838989257807],[126.85739135742233,36.0625]],[[126.85739135742233,36.0625],[126.84490966796875,36.056518554687614]],[[126.84490966796875,36.056518554687614],[126.8380737304692,36.05511474609398]],[[126.8380737304692,36.05511474609398],[126.8308715820317,36.052124023437784]],[[126.8308715820317,36.052124023437784],[126.82339477539074,36.04904174804693]],[[126.82339477539074,36.04904174804693],[126.814208984375,36.03710937499994]],[[126.814208984375,36.03710937499994],[126.80749511718773,36.03570556640631]],[[126.80749511718773,36.03570556640631],[126.78228759765625,36.036682128906364]],[[126.78228759765625,36.036682128906364],[126.77001953125023,36.02929687500017]],[[126.77001953125023,36.02929687500017],[126.76080322265625,36.02731323242193]],[[126.76080322265625,36.02731323242193],[126.75240325927734,36.02577972412115]],[[126.75240325927734,36.02577972412115],[126.741249084473,36.01807022094755]],[[127.91529083251953,35.871986389160156],[127.91342163085938,35.88272094726568]],[[127.91342163085938,35.88272094726568],[127.91229248046898,35.89093017578131]],[[127.91229248046898,35.89093017578131],[127.9114990234375,35.89752197265625]],[[127.9114990234375,35.89752197265625],[127.91250610351574,35.903198242187614]],[[127.91250610351574,35.903198242187614],[127.914306640625,35.909912109375]],[[127.914306640625,35.909912109375],[127.91879272460949,35.934906005859375]],[[127.91879272460949,35.934906005859375],[127.91851806640625,35.94110107421881]],[[127.91851806640625,35.94110107421881],[127.913330078125,35.947509765625]],[[127.913330078125,35.947509765625],[127.90599060058616,35.959762573242244]],[[127.90599060058616,35.959762573242244],[127.89801025390636,35.96951293945318]],[[127.89801025390636,35.96951293945318],[127.89251708984386,35.978515625000114]],[[127.89251708984386,35.978515625000114],[127.88732910156261,35.98828124999994]],[[127.88732910156261,35.98828124999994],[127.88348388671898,35.9957275390625]],[[127.88348388671898,35.9957275390625],[127.87928771972679,36.002128601074276]],[[127.73052978515636,35.75451660156256],[127.73687744140636,35.75732421875]],[[127.73687744140636,35.75732421875],[127.74432373046886,35.762390136718864]],[[127.74432373046886,35.762390136718864],[127.75390625,35.76690673828131]],[[127.75390625,35.76690673828131],[127.76148986816418,35.7742919921875]],[[127.76148986816418,35.7742919921875],[127.76348876953125,35.78372192382818]],[[127.76348876953125,35.78372192382818],[127.76428222656273,35.79168701171875]],[[127.76428222656273,35.79168701171875],[127.76470947265636,35.79931640625]],[[127.76470947265636,35.79931640625],[127.771484375,35.809326171875114]],[[127.771484375,35.809326171875114],[127.77635192871105,35.81466674804699]],[[127.77635192871105,35.81466674804699],[127.78741455078136,35.812194824218864]],[[127.78741455078136,35.812194824218864],[127.79809570312511,35.80868530273443]],[[127.79809570312511,35.80868530273443],[127.80615234375,35.809814453125]],[[127.80615234375,35.809814453125],[127.81759643554688,35.81698608398449]],[[127.81759643554688,35.81698608398449],[127.82452392578125,35.81951904296875]],[[127.82452392578125,35.81951904296875],[127.8328857421875,35.82470703125006]],[[127.8328857421875,35.82470703125006],[127.83850097656261,35.82260131835943]],[[127.83850097656261,35.82260131835943],[127.85131835937511,35.82128906250006]],[[127.85131835937511,35.82128906250006],[127.85848999023438,35.82339477539068]],[[127.85848999023438,35.82339477539068],[127.8651123046875,35.8267555236817]],[[127.8651123046875,35.8267555236817],[127.8685302734375,35.83129882812494]],[[127.8685302734375,35.83129882812494],[127.8748779296875,35.839111328125114]],[[127.8748779296875,35.839111328125114],[127.88232421875,35.84588623046881]],[[127.88232421875,35.84588623046881],[127.88787841796898,35.85272216796875]],[[127.88787841796898,35.85272216796875],[127.89608764648449,35.856903076171875]],[[127.89608764648449,35.856903076171875],[127.90480041503906,35.86059570312506]],[[127.90480041503906,35.86059570312506],[127.91131591796875,35.86529541015625]],[[127.91131591796875,35.86529541015625],[127.91529083251953,35.871986389160156]],[[127.77134704589855,34.965415954589844],[127.77542114257812,34.97482299804693]],[[127.77542114257812,34.97482299804693],[127.77911376953125,34.981140136719034]],[[127.77911376953125,34.981140136719034],[127.78710937500023,34.98272705078119]],[[127.78710937500023,34.98272705078119],[127.79229736328125,34.986602783203125]],[[127.79229736328125,34.986602783203125],[127.7908935546875,34.99359130859369]],[[127.7908935546875,34.99359130859369],[127.78704071044956,35.00136947631836]],[[127.78704071044956,35.00136947631836],[127.78350830078125,35.007507324218864]],[[127.78350830078125,35.007507324218864],[127.78112792968784,35.0126953125]],[[127.78112792968784,35.0126953125],[127.777587890625,35.01859664916998]],[[127.777587890625,35.01859664916998],[127.77410888671875,35.02587890625]],[[127.77410888671875,35.02587890625],[127.76840209960972,35.03359985351591]],[[127.76840209960972,35.03359985351591],[127.7633056640625,35.03692626953125]],[[127.7633056640625,35.03692626953125],[127.75320434570312,35.039916992187614]],[[127.75320434570312,35.039916992187614],[127.73989868164074,35.048004150390625]],[[127.73989868164074,35.048004150390625],[127.73339843750011,35.054016113281364]],[[127.73339843750011,35.054016113281364],[127.71795654296886,35.074127197265625]],[[127.71795654296886,35.074127197265625],[127.71548461914074,35.08618164062523]],[[127.71548461914074,35.08618164062523],[127.70892333984375,35.09631347656256]],[[127.70892333984375,35.09631347656256],[127.7036743164067,35.105712890625114]],[[127.7036743164067,35.105712890625114],[127.69952392578125,35.11328125000006]],[[127.69952392578125,35.11328125000006],[127.69039916992222,35.11978149414068]],[[127.69039916992222,35.11978149414068],[127.68196868896484,35.12113189697271]],[[127.68196868896484,35.12113189697271],[127.67572021484398,35.12188720703131]],[[127.67572021484398,35.12188720703131],[127.67047119140636,35.12890625000023]],[[127.67047119140636,35.12890625000023],[127.66149902343761,35.13690185546875]],[[127.66149902343761,35.13690185546875],[127.65780639648438,35.143493652343864]],[[127.65780639648438,35.143493652343864],[127.6534423828125,35.15370559692394]],[[127.6534423828125,35.15370559692394],[127.65188598632835,35.16799926757835]],[[127.65188598632835,35.16799926757835],[127.64920043945347,35.175903320312614]],[[127.64920043945347,35.175903320312614],[127.64147949218761,35.181884765625]],[[127.64147949218761,35.181884765625],[127.64353942871139,35.1955184936524]],[[127.64353942871139,35.1955184936524],[127.64028930664062,35.20520019531273]],[[127.64028930664062,35.20520019531273],[127.64019775390625,35.21578979492199]],[[127.64019775390625,35.21578979492199],[127.63592529296886,35.225097656250284]],[[127.63592529296886,35.225097656250284],[127.63427734375,35.23089599609375]],[[127.63427734375,35.23089599609375],[127.63092041015625,35.238525390625]],[[127.63092041015625,35.238525390625],[127.62969970703125,35.24468994140631]],[[127.62969970703125,35.24468994140631],[127.62481689453125,35.25268554687523]],[[127.62481689453125,35.25268554687523],[127.6173095703125,35.254882812500114]],[[127.6173095703125,35.254882812500114],[127.61033630371094,35.25994873046881]],[[127.61033630371094,35.25994873046881],[127.61711883544922,35.26969146728521]],[[127.61711883544922,35.26969146728521],[127.62359619140625,35.27600097656256]],[[127.62359619140625,35.27600097656256],[127.6301879882817,35.2825927734375]],[[127.6301879882817,35.2825927734375],[127.63769531250034,35.28649902343756]],[[127.63769531250034,35.28649902343756],[127.64129638671898,35.29107666015631]],[[127.64129638671898,35.29107666015631],[127.64288330078125,35.30151367187523]],[[127.64288330078125,35.30151367187523],[127.64450073242233,35.3079833984375]],[[127.64450073242233,35.3079833984375],[127.64880371093761,35.316284179687614]],[[127.64880371093761,35.316284179687614],[127.6450119018557,35.32656478881836]],[[127.64501190185547,35.32656478881836],[127.64131164550793,35.33680725097662]],[[127.64131164550793,35.33680725097662],[127.64129638671886,35.345092773437614]],[[127.64129638671886,35.345092773437614],[127.64520263671875,35.35171508789068]],[[127.64520263671875,35.35171508789068],[127.651123046875,35.353881835937614]],[[127.651123046875,35.353881835937614],[127.66726684570324,35.356307983398494]],[[127.66726684570324,35.356307983398494],[127.6759033203125,35.357116699218864]],[[127.6759033203125,35.357116699218864],[127.68109130859375,35.35980224609369]],[[127.68109130859375,35.35980224609369],[127.68649291992199,35.364013671875]],[[127.68649291992199,35.364013671875],[127.69030761718761,35.3720703125]],[[127.69030761718761,35.3720703125],[127.69479370117188,35.37960815429699]],[[127.69479370117188,35.37960815429699],[127.69479370117188,35.38739013671881]],[[127.69479370117188,35.38739013671881],[127.69110107421886,35.39569091796875]],[[127.69110107421886,35.39569091796875],[127.6884765625,35.40249633789074]],[[127.6884765625,35.40249633789074],[127.68572998046886,35.40789794921875]],[[127.68572998046886,35.40789794921875],[127.6785888671875,35.42092895507818]],[[127.6785888671875,35.42092895507818],[127.67330932617199,35.433074951171875]],[[127.67330932617199,35.433074951171875],[127.66528320312523,35.44772338867199]],[[127.66528320312523,35.44772338867199],[127.65979003906261,35.46002197265631]],[[127.65979003906261,35.46002197265631],[127.65267944335938,35.4727783203125]],[[127.65267944335938,35.4727783203125],[127.64971923828136,35.479919433593864]],[[127.64971923828136,35.479919433593864],[127.6465072631836,35.4901962280274]],[[127.6465072631836,35.4901962280274],[127.63662719726562,35.51000976562506]],[[127.63662719726562,35.51000976562506],[127.6339111328125,35.51690673828131]],[[127.6339111328125,35.51690673828131],[127.62930297851574,35.52789306640625]],[[127.62930297851574,35.52789306640625],[127.62908935546886,35.53509521484369]],[[127.62908935546886,35.53509521484369],[127.63519287109386,35.54269409179699]],[[127.63519287109386,35.54269409179699],[127.64089965820324,35.54901123046869]],[[127.64089965820324,35.54901123046869],[127.64410400390625,35.5565185546875]],[[127.64410400390625,35.5565185546875],[127.64959716796875,35.56289672851574]],[[127.64959716796875,35.56289672851574],[127.65640258789062,35.57052612304699]],[[127.65640258789062,35.57052612304699],[127.66339111328136,35.57861328125]],[[127.66339111328136,35.57861328125],[127.67031860351574,35.58709716796881]],[[127.67031860351574,35.58709716796881],[127.67599487304699,35.595977783203125]],[[127.67599487304699,35.595977783203125],[127.6768798828125,35.603515625000114]],[[127.6768798828125,35.603515625000114],[127.67584228515636,35.61001586914074]],[[127.67584228515636,35.61001586914074],[127.67221069335949,35.61929321289068]],[[127.67221069335949,35.61929321289068],[127.6697998046875,35.63229370117193]],[[127.6697998046875,35.63229370117193],[127.66619873046875,35.64239501953131]],[[127.66619873046875,35.64239501953131],[127.66888427734375,35.650085449218864]],[[127.66888427734375,35.650085449218864],[127.67510223388672,35.65879440307617]],[[127.67510223388672,35.65879440307617],[127.68231201171886,35.66528320312506]],[[127.68231201171886,35.66528320312506],[127.69000244140625,35.66790771484375]],[[127.69000244140625,35.66790771484375],[127.69470214843761,35.67230224609381]],[[127.69470214843761,35.67230224609381],[127.69606018066418,35.68038177490246]],[[127.69606018066418,35.68038177490246],[127.69760131835938,35.69149780273432]],[[127.69760131835938,35.69149780273432],[127.69512939453125,35.70068359375]],[[127.69512939453125,35.70068359375],[127.6925048828125,35.71710205078125]],[[127.6925048828125,35.71710205078125],[127.69949340820324,35.72579956054699]],[[127.69949340820324,35.72579956054699],[127.70318603515625,35.737091064453125]],[[127.70318603515625,35.737091064453125],[127.70867919921875,35.74267578125]],[[127.70867919921875,35.74267578125],[127.71649169921875,35.751708984375114]],[[127.71649169921875,35.751708984375114],[127.7225036621096,35.75360107421881]],[[127.7225036621096,35.75360107421881],[127.73052978515636,35.75451660156256]]]}}